{
  "type": "FeatureCollection",
  "features": [
    {
      "type": "Feature",
      "properties": {},
      "geometry": {
        "type": "Polygon",
        "coordinates": [
          [
            [
              -71.83578300834094,
              42.24920001733055
            ],
            [
              -71.83554471230461,
              42.249244450830005
            ],
            [
              -71.83495661932739,
              42.24930946546656
            ],
            [
              -71.83449820023824,
              42.24932634995526
            ],
            [
              -71.83426831387456,
              42.2494288240147
            ],
            [
              -71.8337309402589,
              42.24961786724601
            ],
            [
              -71.83352085255784,
              42.2496737920544
            ],
            [
              -71.83338747240754,
              42.24973324576153
            ],
            [
              -71.83315479237423,
              42.24981509837897
            ],
            [
              -71.83308586904894,
              42.24987164500116
            ],
            [
              -71.83264548785301,
              42.25016843858981
            ],
            [
              -71.83216806738508,
              42.25043173169215
            ],
            [
              -71.83165820581704,
              42.250658988223954
            ],
            [
              -71.83150055616507,
              42.25071444285891
            ],
            [
              -71.83134554726843,
              42.25084160950133
            ],
            [
              -71.83090515116787,
              42.25113839635849
            ],
            [
              -71.8304277161484,
              42.25140168217283
            ],
            [
              -71.8299178405221,
              42.25162893093033
            ],
            [
              -71.82948616928203,
              42.25178076392222
            ],
            [
              -71.82941541124039,
              42.25182844589394
            ],
            [
              -71.82893796482178,
              42.25209172547587
            ],
            [
              -71.82858496874383,
              42.25224904633081
            ],
            [
              -71.82832570519984,
              42.25246172145621
            ],
            [
              -71.8278852836733,
              42.25275849663537
            ],
            [
              -71.82740782387746,
              42.25302176980571
            ],
            [
              -71.8270428650527,
              42.25318441306612
            ],
            [
              -71.82669525839182,
              42.253418636136566
            ],
            [
              -71.82621778866832,
              42.25368190432319
            ],
            [
              -71.82570787956537,
              42.2539091342762
            ],
            [
              -71.82517044235878,
              42.25409813725267
            ],
            [
              -71.82492591316623,
              42.25416320500318
            ],
            [
              -71.82485472778737,
              42.25423455986698
            ],
            [
              -71.82445555289083,
              42.25456196491638
            ],
            [
              -71.82401509861003,
              42.254858725126965
            ],
            [
              -71.82353760687869,
              42.25512198209097
            ],
            [
              -71.82302767655536,
              42.25534920007217
            ],
            [
              -71.82263367547544,
              42.25548774611772
            ],
            [
              -71.82244542499151,
              42.25564213943236
            ],
            [
              -71.82200495377164,
              42.25593889186844
            ],
            [
              -71.82152744553281,
              42.25620214041499
            ],
            [
              -71.82101749929262,
              42.256429349416905
            ],
            [
              -71.82054930555422,
              42.25659397137256
            ],
            [
              -71.8202954954631,
              42.25680211912655
            ],
            [
              -71.81985500609274,
              42.2570988632468
            ],
            [
              -71.81937748016233,
              42.25736210278993
            ],
            [
              -71.81917239401513,
              42.25745347345996
            ],
            [
              -71.81901558393399,
              42.25758206651978
            ],
            [
              -71.81857508313581,
              42.257878805684626
            ],
            [
              -71.8180975459985,
              42.25814203986352
            ],
            [
              -71.81758757181808,
              42.25836923353972
            ],
            [
              -71.81705007249751,
              42.25855819831963
            ],
            [
              -71.81678322731764,
              42.25862917781603
            ],
            [
              -71.81653544390987,
              42.258832358500285
            ],
            [
              -71.81609492278321,
              42.259129088075824
            ],
            [
              -71.81561736589833,
              42.25939231187175
            ],
            [
              -71.8151073727416,
              42.25961949447126
            ],
            [
              -71.81460237708764,
              42.259797015363546
            ],
            [
              -71.81455498066022,
              42.25982893927818
            ],
            [
              -71.81443578848706,
              42.259894633793266
            ],
            [
              -71.81436541064588,
              42.259952338963444
            ],
            [
              -71.81392487155063,
              42.26024906014696
            ],
            [
              -71.81344729719032,
              42.260512274856566
            ],
            [
              -71.8129372872197,
              42.260739447762994
            ],
            [
              -71.81239975388655,
              42.26092839067271
            ],
            [
              -71.8123786836532,
              42.26093399410291
            ],
            [
              -71.81198502264238,
              42.261199124602015
            ],
            [
              -71.8119407620089,
              42.26122351745851
            ],
            [
              -71.8119053749972,
              42.261252530160434
            ],
            [
              -71.81146481531857,
              42.261549241828355
            ],
            [
              -71.81098722091618,
              42.261812446235524
            ],
            [
              -71.81047719163782,
              42.26203960815188
            ],
            [
              -71.81025410298983,
              42.26211801674684
            ],
            [
              -71.81001477995666,
              42.26227918999492
            ],
            [
              -71.80967065666371,
              42.262468829343426
            ],
            [
              -71.80942485958842,
              42.26271508590579
            ],
            [
              -71.80926552244573,
              42.26284571027382
            ],
            [
              -71.809204648263,
              42.262941350640155
            ],
            [
              -71.80889898657314,
              42.2633202759531
            ],
            [
              -71.8085447909545,
              42.26367512137256
            ],
            [
              -71.80814547215083,
              42.26400246911552
            ],
            [
              -71.80813672533216,
              42.26400835925567
            ],
            [
              -71.80800936641464,
              42.26438623854185
            ],
            [
              -71.8078090879834,
              42.26480217493593
            ],
            [
              -71.80755488384939,
              42.26520152667707
            ],
            [
              -71.80724920136501,
              42.2655804474443
            ],
            [
              -71.80689498384562,
              42.26593528762944
            ],
            [
              -71.80649564224593,
              42.26626262949986
            ],
            [
              -71.80605502232417,
              42.26655932012961
            ],
            [
              -71.8055773676099,
              42.266822501780936
            ],
            [
              -71.80506727853209,
              42.26704963944289
            ],
            [
              -71.80452966810077,
              42.26723854526137
            ],
            [
              -71.80444897783441,
              42.26725999564299
            ],
            [
              -71.80445390023593,
              42.26727458594121
            ],
            [
              -71.8045412206775,
              42.26771153761904
            ],
            [
              -71.80457045837947,
              42.26815274227744
            ],
            [
              -71.80456418968113,
              42.26824769681713
            ],
            [
              -71.80468248242241,
              42.268493176709065
            ],
            [
              -71.80482704978681,
              42.268921666858695
            ],
            [
              -71.80491437507963,
              42.26935861812638
            ],
            [
              -71.80494361614599,
              42.269799822562376
            ],
            [
              -71.80491449016723,
              42.27024103117075
            ],
            [
              -71.80490949916049,
              42.270266037587035
            ],
            [
              -71.80493757481271,
              42.2704065169882
            ],
            [
              -71.80496681652593,
              42.27084772133737
            ],
            [
              -71.80493769022733,
              42.27128892987073
            ],
            [
              -71.80487605900424,
              42.271597714485296
            ],
            [
              -71.8048958169304,
              42.27189582508967
            ],
            [
              -71.8048666896549,
              42.2723370335241
            ],
            [
              -71.80477947270076,
              42.272773996984526
            ],
            [
              -71.80463500484994,
              42.2732025071443
            ],
            [
              -71.8044346763331,
              42.273618437005744
            ],
            [
              -71.80418041548212,
              42.27401778065341
            ],
            [
              -71.8038746701954,
              42.27439669184419
            ],
            [
              -71.80372447400025,
              42.274547119037635
            ],
            [
              -71.80354978658274,
              42.2747636059575
            ],
            [
              -71.8035245370908,
              42.27478889399676
            ],
            [
              -71.80350955145838,
              42.27486396247709
            ],
            [
              -71.80336507023412,
              42.275292470881034
            ],
            [
              -71.80316472675057,
              42.275708398372814
            ],
            [
              -71.80291044948369,
              42.276107739059796
            ],
            [
              -71.80260468648996,
              42.276486646727356
            ],
            [
              -71.80225038185998,
              42.276841471893306
            ],
            [
              -71.80185094738735,
              42.27716879696955
            ],
            [
              -71.80149499429368,
              42.27740840966951
            ],
            [
              -71.80138314928031,
              42.27764058476459
            ],
            [
              -71.80112885300011,
              42.278039921367586
            ],
            [
              -71.80082306999549,
              42.27841882415839
            ],
            [
              -71.80063214363224,
              42.27861001739681
            ],
            [
              -71.8004751733342,
              42.27880451924975
            ],
            [
              -71.80041544757319,
              42.2789816191885
            ],
            [
              -71.80021507301169,
              42.27939754126041
            ],
            [
              -71.7999607622941,
              42.27979687515134
            ],
            [
              -71.79970499258224,
              42.2801137869269
            ],
            [
              -71.799668645849,
              42.28022155666928
            ],
            [
              -71.79946826244908,
              42.28063747734655
            ],
            [
              -71.79921394203139,
              42.2810368094953
            ],
            [
              -71.79911250104799,
              42.28116249553043
            ],
            [
              -71.79891393233278,
              42.28147428124034
            ],
            [
              -71.79889264998812,
              42.281796146955635
            ],
            [
              -71.79880537872481,
              42.28223310515017
            ],
            [
              -71.79866084880035,
              42.28266160707636
            ],
            [
              -71.79846045104283,
              42.28307752581569
            ],
            [
              -71.79822354034764,
              42.28344949562229
            ],
            [
              -71.79813632482075,
              42.28388613957482
            ],
            [
              -71.79799178658588,
              42.284314640534156
            ],
            [
              -71.79779137919066,
              42.28473055798443
            ],
            [
              -71.79753703172625,
              42.285129886129575
            ],
            [
              -71.79723119292505,
              42.285508778875666
            ],
            [
              -71.797172700039,
              42.28556734188004
            ],
            [
              -71.79718003765814,
              42.2856782328209
            ],
            [
              -71.79715085021532,
              42.286119438230955
            ],
            [
              -71.79706356095184,
              42.28655639476977
            ],
            [
              -71.7969190093454,
              42.28698489417725
            ],
            [
              -71.79671858643273,
              42.28740080955909
            ],
            [
              -71.79646422145436,
              42.28780013513909
            ],
            [
              -71.79615836331128,
              42.288179024848006
            ],
            [
              -71.79609729451417,
              42.28824016262843
            ],
            [
              -71.79583358137634,
              42.28856683894853
            ],
            [
              -71.79547917107955,
              42.28892164244952
            ],
            [
              -71.795079625262,
              42.28924894325465
            ],
            [
              -71.79476664154569,
              42.28945955659433
            ],
            [
              -71.79462931839083,
              42.289675119957
            ],
            [
              -71.79432344018409,
              42.29005400464942
            ],
            [
              -71.79396901307847,
              42.29040880339272
            ],
            [
              -71.79356945004719,
              42.29073609885306
            ],
            [
              -71.79312859898126,
              42.29103273855123
            ],
            [
              -71.79265070563689,
              42.29129586523973
            ],
            [
              -71.79226486683298,
              42.291467549547505
            ],
            [
              -71.79209943481318,
              42.29160305329441
            ],
            [
              -71.79179568726387,
              42.29180742938908
            ],
            [
              -71.79178068085298,
              42.29182601559376
            ],
            [
              -71.7914262295464,
              42.29218080637103
            ],
            [
              -71.79102664215496,
              42.29250809287343
            ],
            [
              -71.79058576680434,
              42.29280472270796
            ],
            [
              -71.79010784948476,
              42.29306783872211
            ],
            [
              -71.7895974931551,
              42.29329490653687
            ],
            [
              -71.78905961340035,
              42.2934837389707
            ],
            [
              -71.78849939106972,
              42.29363251711837
            ],
            [
              -71.78792222235255,
              42.29373980788136
            ],
            [
              -71.7878797987476,
              42.29374447665821
            ],
            [
              -71.78760310111981,
              42.29379591112531
            ],
            [
              -71.78721232044445,
              42.29383891531426
            ],
            [
              -71.78699557340835,
              42.2941073248289
            ],
            [
              -71.78664108246063,
              42.294462100679226
            ],
            [
              -71.7862414558807,
              42.29478937038302
            ],
            [
              -71.78580054217178,
              42.295085981709015
            ],
            [
              -71.78532258769368,
              42.29534907768295
            ],
            [
              -71.78481219576334,
              42.29557612411882
            ],
            [
              -71.78427428230877,
              42.29576493404096
            ],
            [
              -71.78371402850398,
              42.295913688761004
            ],
            [
              -71.78355225032402,
              42.29594375401266
            ],
            [
              -71.7834787123569,
              42.295984231383386
            ],
            [
              -71.78296830867698,
              42.29621126959081
            ],
            [
              -71.78243038431157,
              42.29640007084645
            ],
            [
              -71.78226186255026,
              42.29644481243264
            ],
            [
              -71.78204362694383,
              42.29659160670682
            ],
            [
              -71.78156564544837,
              42.29685468695908
            ],
            [
              -71.78105522787038,
              42.29708171662056
            ],
            [
              -71.78051729038508,
              42.297270508877176
            ],
            [
              -71.77995701439801,
              42.29741924521069
            ],
            [
              -71.77973103311356,
              42.29746123317758
            ],
            [
              -71.77971599297986,
              42.29747628201218
            ],
            [
              -71.77931631149686,
              42.297803527418075
            ],
            [
              -71.77887534427447,
              42.29810011197024
            ],
            [
              -71.77839733818811,
              42.29836317895219
            ],
            [
              -71.77788689705201,
              42.29859019445715
            ],
            [
              -71.77734893726836,
              42.298778971807366
            ],
            [
              -71.77678864045761,
              42.29892769262819
            ],
            [
              -71.77621140352683,
              42.29903492437326
            ],
            [
              -71.7756227866584,
              42.299099634131686
            ],
            [
              -71.77502845972101,
              42.299121198583556
            ],
            [
              -71.77443414762094,
              42.29909941000789
            ],
            [
              -71.7738455751214,
              42.299034478284774
            ],
            [
              -71.77326841166338,
              42.298927028872306
            ],
            [
              -71.77270821672094,
              42.29877809677826
            ],
            [
              -71.77217038621922,
              42.298589116584125
            ],
            [
              -71.7716601005324,
              42.29836190861847
            ],
            [
              -71.77118227456432,
              42.298098661412844
            ],
            [
              -71.77074151039315,
              42.29780191060989
            ],
            [
              -71.77034205293734,
              42.29747451452719
            ],
            [
              -71.76998774907011,
              42.29711962661307
            ],
            [
              -71.76968201057667,
              42.296740665060064
            ],
            [
              -71.76942778131055,
              42.2963412798693
            ],
            [
              -71.76922750886467,
              42.29592531768399
            ],
            [
              -71.7690831210296,
              42.295496784730766
            ],
            [
              -71.76899600726392,
              42.295059808226696
            ],
            [
              -71.76896700535448,
              42.294618596623806
            ],
            [
              -71.76899639339285,
              42.29417739907448
            ],
            [
              -71.76908388714361,
              42.29374046450803
            ],
            [
              -71.76922864282848,
              42.29331200071299
            ],
            [
              -71.76942926529705,
              42.29289613381878
            ],
            [
              -71.7696838215041,
              42.292496868566914
            ],
            [
              -71.76998985916211,
              42.2921180497541
            ],
            [
              -71.77034443038768,
              42.29176332521807
            ],
            [
              -71.77074412011338,
              42.29143611072198
            ],
            [
              -71.77109313169939,
              42.29120139383446
            ],
            [
              -71.77115233991245,
              42.29114215790336
            ],
            [
              -71.7715520215298,
              42.290814940556395
            ],
            [
              -71.77199297228483,
              42.29051838377158
            ],
            [
              -71.77247094570103,
              42.29025534310789
            ],
            [
              -71.77298133898759,
              42.290028351362984
            ],
            [
              -71.77351923735318,
              42.289839594197254
            ],
            [
              -71.77407946131592,
              42.2896908891
            ],
            [
              -71.7741445686726,
              42.28967879392341
            ],
            [
              -71.77445520050446,
              42.28946986564724
            ],
            [
              -71.77493315575131,
              42.28920681467585
            ],
            [
              -71.7754435317349,
              42.28897981193419
            ],
            [
              -71.77598141383044,
              42.28879104318859
            ],
            [
              -71.77614573365958,
              42.288747422000895
            ],
            [
              -71.77636084833792,
              42.28860272898347
            ],
            [
              -71.7768387891024,
              42.2883396700321
            ],
            [
              -71.77734915124562,
              42.288112658777536
            ],
            [
              -71.77788702027595,
              42.28792388106804
            ],
            [
              -71.7784472169939,
              42.28777515459074
            ],
            [
              -71.77847381636357,
              42.287770211928546
            ],
            [
              -71.77881061256203,
              42.287584827406235
            ],
            [
              -71.77932096153398,
              42.28735780734904
            ],
            [
              -71.77985881825705,
              42.287169020369326
            ],
            [
              -71.78041900365012,
              42.287020284243454
            ],
            [
              -71.7809961237636,
              42.28691303109819
            ],
            [
              -71.78139085702037,
              42.28686960897907
            ],
            [
              -71.78173530397375,
              42.28652488781692
            ],
            [
              -71.78213490163945,
              42.286197633334275
            ],
            [
              -71.78257577056189,
              42.285901035631994
            ],
            [
              -71.78305256229002,
              42.28563855774793
            ],
            [
              -71.78312721231482,
              42.2855638441871
            ],
            [
              -71.78352679670445,
              42.28523658480058
            ],
            [
              -71.7839676523986,
              42.28493998169887
            ],
            [
              -71.78443829250914,
              42.284680877527535
            ],
            [
              -71.78449422014478,
              42.284624899551666
            ],
            [
              -71.78489379152737,
              42.28429763534943
            ],
            [
              -71.78533463426461,
              42.28400102694533
            ],
            [
              -71.7854536575498,
              42.2839354975828
            ],
            [
              -71.78575301728436,
              42.28356473852079
            ],
            [
              -71.78581409156592,
              42.283503606197186
            ],
            [
              -71.7859965729396,
              42.28327759866182
            ],
            [
              -71.78598600778926,
              42.28311749599779
            ],
            [
              -71.78601527173211,
              42.28267629320164
            ],
            [
              -71.78610263196913,
              42.28223934477732
            ],
            [
              -71.78624724600829,
              42.28181085864709
            ],
            [
              -71.78644772006356,
              42.28139496115571
            ],
            [
              -71.78662114990463,
              42.28112275056841
            ],
            [
              -71.78670776924857,
              42.280689475900196
            ],
            [
              -71.78685237564329,
              42.280260988890646
            ],
            [
              -71.787052840806,
              42.279845090228676
            ],
            [
              -71.78730723320659,
              42.279445784962085
            ],
            [
              -71.78750786495907,
              42.27919727164471
            ],
            [
              -71.78752581882894,
              42.27892647234476
            ],
            [
              -71.78761316344885,
              42.27848952248293
            ],
            [
              -71.78775775867922,
              42.278061034166775
            ],
            [
              -71.78795821091529,
              42.27764513376216
            ],
            [
              -71.78821258875156,
              42.277245826333655
            ],
            [
              -71.78831404511054,
              42.277120149851996
            ],
            [
              -71.78852261663921,
              42.27679274061224
            ],
            [
              -71.78859435140943,
              42.27670387967631
            ],
            [
              -71.78870499362178,
              42.276375981676125
            ],
            [
              -71.7889054342893,
              42.27596007949335
            ],
            [
              -71.78915979936933,
              42.27556076984628
            ],
            [
              -71.78946563841501,
              42.2751818979595
            ],
            [
              -71.78953354746768,
              42.275113909057026
            ],
            [
              -71.7897233217785,
              42.274720119044765
            ],
            [
              -71.78997767670951,
              42.2743208074972
            ],
            [
              -71.7902835048617,
              42.27394193334736
            ],
            [
              -71.79047444841139,
              42.27375075717802
            ],
            [
              -71.79074372847252,
              42.273417153336304
            ],
            [
              -71.79109807845944,
              42.27306236350071
            ],
            [
              -71.79149754263727,
              42.27273507563361
            ],
            [
              -71.79165478262654,
              42.272629245683476
            ],
            [
              -71.7917309953493,
              42.27240333376744
            ],
            [
              -71.79193140353499,
              42.271987426007655
            ],
            [
              -71.79218573354136,
              42.271588109372644
            ],
            [
              -71.79249153525942,
              42.271209229154344
            ],
            [
              -71.79254284629016,
              42.271157850731626
            ],
            [
              -71.7925291735856,
              42.27095094172217
            ],
            [
              -71.79255838626017,
              42.270509736317564
            ],
            [
              -71.79257929386728,
              42.27040508791765
            ],
            [
              -71.79254953726371,
              42.27025604881155
            ],
            [
              -71.79252038241488,
              42.26981484125522
            ],
            [
              -71.79254033486204,
              42.26951349091703
            ],
            [
              -71.79248162279828,
              42.26939159972498
            ],
            [
              -71.79233713796756,
              42.26896309405478
            ],
            [
              -71.79224990007882,
              42.268526133185816
            ],
            [
              -71.79222074811585,
              42.26808492541982
            ],
            [
              -71.79222386029195,
              42.26803792315367
            ],
            [
              -71.79210246214342,
              42.267785880918325
            ],
            [
              -71.7919579835465,
              42.26735737465022
            ],
            [
              -71.7918707504893,
              42.26692041337021
            ],
            [
              -71.79184160190918,
              42.26647920538393
            ],
            [
              -71.79187081731179,
              42.266037999809214
            ],
            [
              -71.79187429746975,
              42.26602058039648
            ],
            [
              -71.79176109728174,
              42.265907197071876
            ],
            [
              -71.79145537917503,
              42.26552829147792
            ],
            [
              -71.79120113784938,
              42.26512895235956
            ],
            [
              -71.7910008210155,
              42.264713025916215
            ],
            [
              -71.79085635689322,
              42.26428451803039
            ],
            [
              -71.79076913567764,
              42.26384755567786
            ],
            [
              -71.79075669685581,
              42.26365921700883
            ],
            [
              -71.79029286222504,
              42.26345267870931
            ],
            [
              -71.78981522236009,
              42.26318950750253
            ],
            [
              -71.78937461396714,
              42.26289282647577
            ],
            [
              -71.78897528046488,
              42.26256549327428
            ],
            [
              -71.78862106753361,
              42.26221066074049
            ],
            [
              -71.78831538608398,
              42.2618317465333
            ],
            [
              -71.78806117942155,
              42.261432400197755
            ],
            [
              -71.78791044369581,
              42.26111936682369
            ],
            [
              -71.78769293777415,
              42.261022503977
            ],
            [
              -71.7872153270616,
              42.26075932183233
            ],
            [
              -71.7871029683716,
              42.26068365862961
            ],
            [
              -71.78703590204067,
              42.260681205578976
            ],
            [
              -71.7864476739877,
              42.26061633807759
            ],
            [
              -71.78589468364953,
              42.260513390361886
            ],
            [
              -71.7856793188934,
              42.26052122914097
            ],
            [
              -71.78508536569974,
              42.26049949560339
            ],
            [
              -71.7844971413351,
              42.26043461809643
            ],
            [
              -71.78392031188582,
              42.260327221555855
            ],
            [
              -71.78336043360764,
              42.26017834047986
            ],
            [
              -71.78282289937465,
              42.25998940895829
            ],
            [
              -71.78231288670676,
              42.25976224685053
            ],
            [
              -71.78183530787784,
              42.25949904224612
            ],
            [
              -71.78139476258572,
              42.25920233037699
            ],
            [
              -71.78099549364104,
              42.25887496918537
            ],
            [
              -71.78088301497772,
              42.25876226561868
            ],
            [
              -71.78078819825708,
              42.258710007623556
            ],
            [
              -71.78034766336546,
              42.25841329169201
            ],
            [
              -71.77994840481352,
              42.258085926810644
            ],
            [
              -71.77962036551702,
              42.25775721757102
            ],
            [
              -71.77935466998126,
              42.25757825505421
            ],
            [
              -71.77895542183198,
              42.2572508866689
            ],
            [
              -71.77860129481648,
              42.25689602286792
            ],
            [
              -71.77829569901776,
              42.25651708161117
            ],
            [
              -71.77804157691631,
              42.25611771270408
            ],
            [
              -71.7778413750747,
              42.25570176263278
            ],
            [
              -71.77777663712263,
              42.25550958478196
            ],
            [
              -71.77737763773717,
              42.255465548468486
            ],
            [
              -71.77731972122471,
              42.2554547607985
            ],
            [
              -71.77710300916101,
              42.25546263301135
            ],
            [
              -71.77650910638495,
              42.25544085504486
            ],
            [
              -71.77592093782556,
              42.25537593350004
            ],
            [
              -71.77534416903136,
              42.25526849373689
            ],
            [
              -71.77478435567357,
              42.255119570669954
            ],
            [
              -71.7746440617543,
              42.255070243955416
            ],
            [
              -71.77415224670082,
              42.25520086587575
            ],
            [
              -71.77357540420545,
              42.255308085210245
            ],
            [
              -71.77298719140146,
              42.255372781974934
            ],
            [
              -71.7723932742639,
              42.2553943329752
            ],
            [
              -71.77179937375017,
              42.255372530619695
            ],
            [
              -71.77121121065728,
              42.25530758492113
            ],
            [
              -71.77063445048114,
              42.25520012147223
            ],
            [
              -71.77007464880985,
              42.2550511754157
            ],
            [
              -71.77004497110542,
              42.25504073938523
            ],
            [
              -71.76972003145579,
              42.25510112502112
            ],
            [
              -71.76913181663518,
              42.255165802014425
            ],
            [
              -71.76853790012781,
              42.255187333050266
            ],
            [
              -71.76794400288495,
              42.255165510729604
            ],
            [
              -71.7677439411127,
              42.25514341306718
            ],
            [
              -71.76763391053612,
              42.25515550974185
            ],
            [
              -71.76703999361592,
              42.255177033020686
            ],
            [
              -71.76644609698626,
              42.25515520294331
            ],
            [
              -71.76585794140674,
              42.25509022978955
            ],
            [
              -71.76571283685547,
              42.25506318654879
            ],
            [
              -71.76551966025319,
              42.25508442068985
            ],
            [
              -71.76492574328134,
              42.25510593302017
            ],
            [
              -71.76433184804817,
              42.2550840919943
            ],
            [
              -71.76374369529987,
              42.255019107997526
            ],
            [
              -71.76316695043258,
              42.25491160699143
            ],
            [
              -71.76260716888684,
              42.25476262448054
            ],
            [
              -71.7620697426045,
              42.25457359553178
            ],
            [
              -71.7615598480651,
              42.25434634094296
            ],
            [
              -71.7610823964041,
              42.254083049694344
            ],
            [
              -71.76064198609389,
              42.253786257852326
            ],
            [
              -71.76024285864442,
              42.25345882412934
            ],
            [
              -71.75988885775068,
              42.253103902335745
            ],
            [
              -71.75958339228048,
              42.252724910989855
            ],
            [
              -71.75953759661427,
              42.25265289534272
            ],
            [
              -71.75940158582898,
              42.25259227121781
            ],
            [
              -71.75916465374638,
              42.25250892455135
            ],
            [
              -71.75865478626437,
              42.25228165696823
            ],
            [
              -71.7581773622556,
              42.252018353534325
            ],
            [
              -71.75773697992595,
              42.251721550433345
            ],
            [
              -71.75739026260608,
              42.25143708401766
            ],
            [
              -71.75737181815043,
              42.25143504490929
            ],
            [
              -71.75679511675716,
              42.25132751179898
            ],
            [
              -71.75623538189923,
              42.251178498101105
            ],
            [
              -71.75569800506855,
              42.250989439182966
            ],
            [
              -71.75518816226817,
              42.25076215613108
            ],
            [
              -71.75471076413497,
              42.2504988381998
            ],
            [
              -71.75427040862556,
              42.25020202171251
            ],
            [
              -71.75387133672189,
              42.24987456561893
            ],
            [
              -71.75351739158383,
              42.24951962394484
            ],
            [
              -71.75321198154208,
              42.24914061539995
            ],
            [
              -71.75295804728765,
              42.24874119043746
            ],
            [
              -71.75275803357361,
              42.24832519608306
            ],
            [
              -71.75261386570033,
              42.24789663887269
            ],
            [
              -71.75252693101011,
              42.247459646256594
            ],
            [
              -71.75250405803502,
              42.2471100245237
            ],
            [
              -71.75245554780255,
              42.24708326466177
            ],
            [
              -71.75201522661443,
              42.24678643934305
            ],
            [
              -71.75161618789481,
              42.24645897521153
            ],
            [
              -71.75126227448392,
              42.24610402637038
            ],
            [
              -71.75095689440685,
              42.24572501159827
            ],
            [
              -71.75070298806608,
              42.24532558140831
            ],
            [
              -71.75059738303189,
              42.245105911392095
            ],
            [
              -71.7504202620931,
              42.245008197673364
            ],
            [
              -71.74997996487204,
              42.24471136443619
            ],
            [
              -71.74958094975044,
              42.24438389310781
            ],
            [
              -71.74922705934121,
              42.24402893786067
            ],
            [
              -71.7489217014479,
              42.24364991753507
            ],
            [
              -71.74866781625933,
              42.243250482697654
            ],
            [
              -71.74846784805608,
              42.24283448046908
            ],
            [
              -71.74832372170043,
              42.24240591746106
            ],
            [
              -71.7483206520435,
              42.242390480669606
            ],
            [
              -71.74825384082719,
              42.242191813875344
            ],
            [
              -71.74816694403691,
              42.24175481752469
            ],
            [
              -71.74813811155244,
              42.24131359657786
            ],
            [
              -71.74816761983642,
              42.24087240027683
            ],
            [
              -71.74825518349843,
              42.24043547753863
            ],
            [
              -71.7483999580898,
              42.24000703603778
            ],
            [
              -71.74860054828095,
              42.23959120168894
            ],
            [
              -71.74885502134016,
              42.2391919789203
            ],
            [
              -71.74916092578306,
              42.23881321211965
            ],
            [
              -71.74951531501118,
              42.238458548624145
            ],
            [
              -71.74991477571135,
              42.23813140360951
            ],
            [
              -71.75035546074118,
              42.237834927216525
            ],
            [
              -71.75083312618371,
              42.23757197423055
            ],
            [
              -71.75134317221399,
              42.23734507660541
            ],
            [
              -71.75188068738423,
              42.237156419095705
            ],
            [
              -71.75244049590172,
              42.2370078182316
            ],
            [
              -71.75301720744487,
              42.23690070483783
            ],
            [
              -71.75360526903876,
              42.236836110265
            ],
            [
              -71.75419901849214,
              42.236814656465114
            ],
            [
              -71.75479273888281,
              42.236836550006856
            ],
            [
              -71.75538071356814,
              42.236901580087846
            ],
            [
              -71.75595728119303,
              42.23700912056307
            ],
            [
              -71.75651689016723,
              42.23715813597004
            ],
            [
              -71.75705415208898,
              42.237347191492695
            ],
            [
              -71.75756389360222,
              42.23757446676858
            ],
            [
              -71.7580412061893,
              42.23783777340672
            ],
            [
              -71.75848149342066,
              42.23813457604777
            ],
            [
              -71.75888051520742,
              42.23846201676457
            ],
            [
              -71.75923442863132,
              42.23881694256845
            ],
            [
              -71.75953982495862,
              42.23919593575708
            ],
            [
              -71.75979376248173,
              42.23959534681256
            ],
            [
              -71.75996261598597,
              42.23994649102968
            ],
            [
              -71.76025832242522,
              42.24010960044682
            ],
            [
              -71.76069863583855,
              42.240406394460194
            ],
            [
              -71.76077273254647,
              42.24046719383612
            ],
            [
              -71.76116320752826,
              42.24068257045079
            ],
            [
              -71.76160352916563,
              42.24097936096085
            ],
            [
              -71.762002585015,
              42.24130679065473
            ],
            [
              -71.7621756329827,
              42.24148031309997
            ],
            [
              -71.76230802427156,
              42.24153933002191
            ],
            [
              -71.76278538646312,
              42.241802616735384
            ],
            [
              -71.76322572348988,
              42.242099400960136
            ],
            [
              -71.7636247947836,
              42.24242682494642
            ],
            [
              -71.76397875694938,
              42.24278173586669
            ],
            [
              -71.76411579331123,
              42.24295176478195
            ],
            [
              -71.76417143621974,
              42.24298926611522
            ],
            [
              -71.76457051801026,
              42.243316686760544
            ],
            [
              -71.7649244904494,
              42.243671594707536
            ],
            [
              -71.76522994423523,
              42.24405057242597
            ],
            [
              -71.76540315113668,
              42.244322937022446
            ],
            [
              -71.76569676327048,
              42.24452080996916
            ],
            [
              -71.76609586259875,
              42.244848225220274
            ],
            [
              -71.76644985214672,
              42.245203128365574
            ],
            [
              -71.76668994029339,
              42.24550098775281
            ],
            [
              -71.76671187962756,
              42.24551577258999
            ],
            [
              -71.76711099047493,
              42.245843184252436
            ],
            [
              -71.76741125725997,
              42.24614421403456
            ],
            [
              -71.76771071196488,
              42.24608856290834
            ],
            [
              -71.7682988438967,
              42.246023893092776
            ],
            [
              -71.76889267452091,
              42.24600236325208
            ],
            [
              -71.76948648613401,
              42.24602418068705
            ],
            [
              -71.77007456121535,
              42.246089135328
            ],
            [
              -71.77065123744363,
              42.2461966017563
            ],
            [
              -71.77104367297808,
              42.24630102971187
            ],
            [
              -71.771196335519,
              42.246284239068444
            ],
            [
              -71.77120608433351,
              42.24628081587825
            ],
            [
              -71.77176592816245,
              42.24613212091025
            ],
            [
              -71.7723426901112,
              42.246024910497894
            ],
            [
              -71.77293081671955,
              42.24596021692581
            ],
            [
              -71.77321447831032,
              42.24594992142069
            ],
            [
              -71.77368270623535,
              42.245825550039136
            ],
            [
              -71.77425946214532,
              42.24571832998029
            ],
            [
              -71.774847583947,
              42.245653626574196
            ],
            [
              -71.77544140886958,
              42.24563206282064
            ],
            [
              -71.77603521926443,
              42.24565384634691
            ],
            [
              -71.77662329762269,
              42.245718767409834
            ],
            [
              -71.7771999815915,
              42.24582620091402
            ],
            [
              -71.77775971846087,
              42.245975112426926
            ],
            [
              -71.77829711859822,
              42.24616406813286
            ],
            [
              -71.77880700731728,
              42.246391248630566
            ],
            [
              -71.77881349930152,
              42.24639482755431
            ],
            [
              -71.77901048264975,
              42.24637314862487
            ],
            [
              -71.77960431290226,
              42.246351563317916
            ],
            [
              -71.7801981314767,
              42.24637332528595
            ],
            [
              -71.78078622078544,
              42.246438224993355
            ],
            [
              -71.78136291837026,
              42.24654563755034
            ],
            [
              -71.7819226713902,
              42.24669452872608
            ],
            [
              -71.78246009005717,
              42.246883464900655
            ],
            [
              -71.78296999950662,
              42.2471106268609
            ],
            [
              -71.78318005069735,
              42.24722641107027
            ],
            [
              -71.78339565399925,
              42.24725019869216
            ],
            [
              -71.78397236340678,
              42.247357598111975
            ],
            [
              -71.78453212974156,
              42.247506476530155
            ],
            [
              -71.7850695630874,
              42.24769540044971
            ],
            [
              -71.78557948843849,
              42.24792255077541
            ],
            [
              -71.78605699550775,
              42.24818574031947
            ],
            [
              -71.78649748599378,
              42.24848243485025
            ],
            [
              -71.78689671785125,
              42.24880977748179
            ],
            [
              -71.78725084613968,
              42.24916461617015
            ],
            [
              -71.78755646005688,
              42.24954353405225
            ],
            [
              -71.78781061580028,
              42.249942882335695
            ],
            [
              -71.78801086493958,
              42.25035881542342
            ],
            [
              -71.78801184560886,
              42.250361725353535
            ],
            [
              -71.78818072588646,
              42.25057110534956
            ],
            [
              -71.78843488969268,
              42.25097045217791
            ],
            [
              -71.78863514618344,
              42.251386384100975
            ],
            [
              -71.78874309327283,
              42.25170667753394
            ],
            [
              -71.78875227484772,
              42.25171420506063
            ],
            [
              -71.78915253678369,
              42.251758342786985
            ],
            [
              -71.78972929702502,
              42.25186571317233
            ],
            [
              -71.79028911675891,
              42.25201456337358
            ],
            [
              -71.79037435666982,
              42.252044520605786
            ],
            [
              -71.79053455340058,
              42.2520503761068
            ],
            [
              -71.79112270603952,
              42.252115222743654
            ],
            [
              -71.7916994728739,
              42.25222258321415
            ],
            [
              -71.79225930039628,
              42.252371423788965
            ],
            [
              -71.79279679810158,
              42.25256031133542
            ],
            [
              -71.79330679036448,
              42.25278742710862
            ],
            [
              -71.79378436625394,
              42.253050584253494
            ],
            [
              -71.7940631599201,
              42.25323831881107
            ],
            [
              -71.79441903260589,
              42.253363371485776
            ],
            [
              -71.79492903715906,
              42.25359048001317
            ],
            [
              -71.79540662585131,
              42.25385363036567
            ],
            [
              -71.79584719959549,
              42.254150288689054
            ],
            [
              -71.79624651554482,
              42.25447759844613
            ],
            [
              -71.7966007279493,
              42.254832407909625
            ],
            [
              -71.79690642519681,
              42.255211300497976
            ],
            [
              -71.79716066268246,
              42.255610627662506
            ],
            [
              -71.79735292175098,
              42.25600979058559
            ],
            [
              -71.797508790316,
              42.256051220318426
            ],
            [
              -71.79804633493325,
              42.25624008313978
            ],
            [
              -71.79855637567988,
              42.256467175421925
            ],
            [
              -71.79892297404021,
              42.25666914345813
            ],
            [
              -71.7992757523395,
              42.2566302614819
            ],
            [
              -71.79986967189092,
              42.25660857127464
            ],
            [
              -71.80046359363863,
              42.256630228265074
            ],
            [
              -71.80051622785679,
              42.25663602648585
            ],
            [
              -71.80089565698904,
              42.25638053171039
            ],
            [
              -71.80123977347202,
              42.256190918488386
            ],
            [
              -71.8014855770587,
              42.25594467918639
            ],
            [
              -71.80188487947316,
              42.255617354169274
            ],
            [
              -71.80232544277285,
              42.25532067899248
            ],
            [
              -71.80280302421144,
              42.255057510355506
            ],
            [
              -71.80331302477151,
              42.25483038228862
            ],
            [
              -71.8035360963324,
              42.254751987095055
            ],
            [
              -71.80377540740368,
              42.25459082715369
            ],
            [
              -71.80381966654603,
              42.25456643742
            ],
            [
              -71.80385505352623,
              42.25453742717893
            ],
            [
              -71.8042956000756,
              42.25424074437834
            ],
            [
              -71.8047731651753,
              42.25397756748806
            ],
            [
              -71.80528314996522,
              42.253750430617806
            ],
            [
              -71.80582064358615,
              42.25356152082577
            ],
            [
              -71.80584171194596,
              42.25355591859319
            ],
            [
              -71.80623535115812,
              42.25329080882617
            ],
            [
              -71.80635453940762,
              42.253225122757634
            ],
            [
              -71.80642491707297,
              42.25316742243532
            ],
            [
              -71.80686544204339,
              42.25287072969288
            ],
            [
              -71.80734298612333,
              42.25260754203933
            ],
            [
              -71.80785295065499,
              42.25238039368809
            ],
            [
              -71.80815849330402,
              42.252272996089935
            ],
            [
              -71.80816509050736,
              42.25226758695486
            ],
            [
              -71.80860560106015,
              42.251970887482074
            ],
            [
              -71.80908313111736,
              42.25170769254178
            ],
            [
              -71.80959308215616,
              42.251480536417596
            ],
            [
              -71.81013054364217,
              42.251291606353085
            ],
            [
              -71.81027820936885,
              42.25125233315882
            ],
            [
              -71.81045475393688,
              42.251107571862754
            ],
            [
              -71.81089524568686,
              42.250810863536024
            ],
            [
              -71.81137275747477,
              42.250547659009534
            ],
            [
              -71.8116808807657,
              42.25041039599749
            ],
            [
              -71.81196474099026,
              42.25017762776614
            ],
            [
              -71.81240521919315,
              42.24988091359214
            ],
            [
              -71.81288271768935,
              42.24961770273646
            ],
            [
              -71.81339263825983,
              42.24939052963598
            ],
            [
              -71.81393007066349,
              42.24920158169777
            ],
            [
              -71.81396747071857,
              42.249191633067426
            ],
            [
              -71.81426490863538,
              42.248947713030475
            ],
            [
              -71.81470536750143,
              42.24865098995929
            ],
            [
              -71.81518284715888,
              42.24838776947119
            ],
            [
              -71.81569274957006,
              42.24816058609579
            ],
            [
              -71.8157390105549,
              42.24814432056661
            ],
            [
              -71.81608513662306,
              42.247911135768824
            ],
            [
              -71.8165626049647,
              42.2476479095027
            ],
            [
              -71.81707249646648,
              42.2474207199639
            ],
            [
              -71.81760990116715,
              42.24723175471777
            ],
            [
              -71.81811393803841,
              42.24709765425015
            ],
            [
              -71.81834558862512,
              42.24686546331231
            ],
            [
              -71.81874474660357,
              42.24653807908998
            ],
            [
              -71.81918516771256,
              42.24624133869107
            ],
            [
              -71.81966261057451,
              42.24597809944326
            ],
            [
              -71.82017247750592,
              42.24575089605688
            ],
            [
              -71.82048680173746,
              42.2456403587102
            ],
            [
              -71.82067257430056,
              42.24553792881506
            ],
            [
              -71.82102555262632,
              42.24538063213153
            ],
            [
              -71.82128481170317,
              42.24516797324671
            ],
            [
              -71.8217252113787,
              42.24487122302354
            ],
            [
              -71.82220263335007,
              42.24460797313954
            ],
            [
              -71.82271248013481,
              42.24438075840743
            ],
            [
              -71.82272706858052,
              42.244375627657675
            ],
            [
              -71.82304518198346,
              42.24416126685052
            ],
            [
              -71.82352259311455,
              42.243898011439555
            ],
            [
              -71.8240324294466,
              42.24367079081174
            ],
            [
              -71.8240379353306,
              42.24366885429564
            ],
            [
              -71.82443495179325,
              42.24340131298824
            ],
            [
              -71.82491235141724,
              42.24313805175762
            ],
            [
              -71.82542217664385,
              42.24291082492201
            ],
            [
              -71.82586870160519,
              42.24275376447627
            ],
            [
              -71.82594235261027,
              42.242720937755806
            ],
            [
              -71.82617501590047,
              42.242639099672196
            ],
            [
              -71.82624393752721,
              42.242582557132124
            ],
            [
              -71.82668429598263,
              42.24228578773457
            ],
            [
              -71.8271616778458,
              42.24202251709035
            ],
            [
              -71.82767148602028,
              42.24179528021215
            ],
            [
              -71.82820881134681,
              42.24160626512121
            ],
            [
              -71.82841887697465,
              42.24155034996769
            ],
            [
              -71.82855224455618,
              42.24149090195562
            ],
            [
              -71.82908956467114,
              42.24130188272823
            ],
            [
              -71.82964922842135,
              42.2411529050917
            ],
            [
              -71.83022584687784,
              42.24104540349839
            ],
            [
              -71.83081386796115,
              42.240980413036425
            ],
            [
              -71.83127222761046,
              42.24096354325795
            ],
            [
              -71.83150208809523,
              42.240861075055825
            ],
            [
              -71.83203939406098,
              42.2406720419874
            ],
            [
              -71.83259904530485,
              42.24052304993933
            ],
            [
              -71.83317565301819,
              42.24041553350273
            ],
            [
              -71.83376366522496,
              42.24035052790865
            ],
            [
              -71.83409361114492,
              42.240338375911556
            ],
            [
              -71.83433187468594,
              42.24029394536246
            ],
            [
              -71.83491988457673,
              42.24022893383843
            ],
            [
              -71.83551363802123,
              42.240207059009094
            ],
            [
              -71.83610741805867,
              42.24022853149666
            ],
            [
              -71.83669550747246,
              42.24029314455253
            ],
            [
              -71.83727224380358,
              42.24040027604672
            ],
            [
              -71.83783207383853,
              42.24054889445444
            ],
            [
              -71.83836960704852,
              42.24073756878201
            ],
            [
              -71.83887966746714,
              42.240964482337375
            ],
            [
              -71.839357343508,
              42.241227450212584
            ],
            [
              -71.83979803524402,
              42.24152394031045
            ],
            [
              -71.84019749869356,
              42.241851097713685
            ],
            [
              -71.8405518866876,
              42.24220577216223
            ],
            [
              -71.8408577859247,
              42.242584548374836
            ],
            [
              -71.84111224985632,
              42.242983778923794
            ],
            [
              -71.84131282708576,
              42.24339961934634
            ],
            [
              -71.84145758500594,
              42.24382806515577
            ],
            [
              -71.84154512844759,
              42.244264990395884
            ],
            [
              -71.84157461315657,
              42.24470618736807
            ],
            [
              -71.84154575396933,
              42.245147407148735
            ],
            [
              -71.84145882760548,
              42.2455844005071
            ],
            [
              -71.84131467004953,
              42.24601295882916
            ],
            [
              -71.84111466854446,
              42.24642895465403
            ],
            [
              -71.84086074827323,
              42.2468283814316
            ],
            [
              -71.84055535385426,
              42.247207392118696
            ],
            [
              -71.84020142582813,
              42.24756233624155
            ],
            [
              -71.83980237236075,
              42.24788979506689
            ],
            [
              -71.83936203643445,
              42.24818661454265
            ],
            [
              -71.83888465884255,
              42.24844993569037
            ],
            [
              -71.83837483734376,
              42.24867722215566
            ],
            [
              -71.83783748236974,
              42.248866284651314
            ],
            [
              -71.83727776971294,
              42.249015302056414
            ],
            [
              -71.83670109065133,
              42.24912283896797
            ],
            [
              -71.83611299999133,
              42.249187859535574
            ],
            [
              -71.83578300834094,
              42.24920001733055
            ]
          ]
        ]
      }
    }
  ]
}