{
  "type": "FeatureCollection",
  "features": [
    {
      "type": "Feature",
      "properties": {},
      "geometry": {
        "type": "Polygon",
        "coordinates": [
          [
            [
              -71.83631987055347,
              42.25188110998285
            ],
            [
              -71.83625518667112,
              42.251893169022125
            ],
            [
              -71.83551479889212,
              42.251974998788
            ],
            [
              -71.83520987938408,
              42.25208225602534
            ],
            [
              -71.83495263002415,
              42.25225561792571
            ],
            [
              -71.83418872333095,
              42.252676878914166
            ],
            [
              -71.8337098427755,
              42.25289031150829
            ],
            [
              -71.83321227132026,
              42.253225610352324
            ],
            [
              -71.83244834134227,
              42.25364685967957
            ],
            [
              -71.83163250208749,
              42.254010447090245
            ],
            [
              -71.83140651942692,
              42.25408992599145
            ],
            [
              -71.83095855921128,
              42.25433692896127
            ],
            [
              -71.8309146940117,
              42.254356477216646
            ],
            [
              -71.83089706673785,
              42.25437093618748
            ],
            [
              -71.8301923633156,
              42.254845770789636
            ],
            [
              -71.82942839369157,
              42.25526699988577
            ],
            [
              -71.82921739006679,
              42.25536102685912
            ],
            [
              -71.82900232285999,
              42.25550593398932
            ],
            [
              -71.82823833735013,
              42.25592715511118
            ],
            [
              -71.82742244452713,
              42.25629071243339
            ],
            [
              -71.82711536679885,
              42.256398694869944
            ],
            [
              -71.82702688303107,
              42.25647126571714
            ],
            [
              -71.82632212719733,
              42.25694607636891
            ],
            [
              -71.82555810647145,
              42.25736727953393
            ],
            [
              -71.82476687255463,
              42.25771981588221
            ],
            [
              -71.82431195544702,
              42.25802628315149
            ],
            [
              -71.82354790830658,
              42.258447472848125
            ],
            [
              -71.82273195605785,
              42.258810996647114
            ],
            [
              -71.82270508521023,
              42.25882044397639
            ],
            [
              -71.82216197915129,
              42.25918629735282
            ],
            [
              -71.82149028721668,
              42.25955654937623
            ],
            [
              -71.82088204241457,
              42.2599662652509
            ],
            [
              -71.82011794903201,
              42.26038743195848
            ],
            [
              -71.81930195207431,
              42.260750931235286
            ],
            [
              -71.81886532861765,
              42.26090441868773
            ],
            [
              -71.81840184583945,
              42.261216597072185
            ],
            [
              -71.81763772085769,
              42.261637747166375
            ],
            [
              -71.81682169353473,
              42.262001228719726
            ],
            [
              -71.81662934932552,
              42.26206883786823
            ],
            [
              -71.81623176385772,
              42.26233661238191
            ],
            [
              -71.81546761091252,
              42.26275774793746
            ],
            [
              -71.81465155668455,
              42.26312121398121
            ],
            [
              -71.81441328056819,
              42.26320496114795
            ],
            [
              -71.81429188559595,
              42.26328671550638
            ],
            [
              -71.81429017698777,
              42.26328765709752
            ],
            [
              -71.81377167387558,
              42.26363684306754
            ],
            [
              -71.81300748885987,
              42.26405796213859
            ],
            [
              -71.81233652669289,
              42.26435677993995
            ],
            [
              -71.81232161729014,
              42.26436682013132
            ],
            [
              -71.81226705819645,
              42.26439688492059
            ],
            [
              -71.81225208047078,
              42.26441188998046
            ],
            [
              -71.81192235867019,
              42.26482062935139
            ],
            [
              -71.81141011470362,
              42.26533379517216
            ],
            [
              -71.81116848173504,
              42.265835609137355
            ],
            [
              -71.81076174716013,
              42.266474571601265
            ],
            [
              -71.8102726423376,
              42.267080843733574
            ],
            [
              -71.80970587614452,
              42.26764858579328
            ],
            [
              -71.80906690594364,
              42.26817232901915
            ],
            [
              -71.80843416921613,
              42.26859835904782
            ],
            [
              -71.80853319699054,
              42.26909385754985
            ],
            [
              -71.80857998583473,
              42.269799784545434
            ],
            [
              -71.80855693554945,
              42.27014898237586
            ],
            [
              -71.80860324644172,
              42.270847682583735
            ],
            [
              -71.80855664750408,
              42.27155361633852
            ],
            [
              -71.8085213494494,
              42.27173047022729
            ],
            [
              -71.80853230708796,
              42.27189578858564
            ],
            [
              -71.80848570658806,
              42.27260172218217
            ],
            [
              -71.80834616141047,
              42.273300863980914
            ],
            [
              -71.80811501246906,
              42.273986480532244
            ],
            [
              -71.80779448310558,
              42.27465196843484
            ],
            [
              -71.80738765778325,
              42.275290917950606
            ],
            [
              -71.80691079080226,
              42.27588188442811
            ],
            [
              -71.80684517708578,
              42.2760764825069
            ],
            [
              -71.8065246237758,
              42.27674196661834
            ],
            [
              -71.80611777218768,
              42.27738091139733
            ],
            [
              -71.80562853854659,
              42.277987162571854
            ],
            [
              -71.80506163296984,
              42.27855488060244
            ],
            [
              -71.8045544433997,
              42.27897049052271
            ],
            [
              -71.80433623781488,
              42.27931314308599
            ],
            [
              -71.80384697215506,
              42.27991938645792
            ],
            [
              -71.80379812544417,
              42.27996830003769
            ],
            [
              -71.8035751177971,
              42.28043119523114
            ],
            [
              -71.80316821268677,
              42.28107012913697
            ],
            [
              -71.80304345270315,
              42.28122470993692
            ],
            [
              -71.80282836089825,
              42.281671152966744
            ],
            [
              -71.802481172059,
              42.28221629642763
            ],
            [
              -71.80237255105499,
              42.282760157026054
            ],
            [
              -71.80214130279896,
              42.28344576040481
            ],
            [
              -71.80182066265127,
              42.28411123051337
            ],
            [
              -71.80173796953325,
              42.2842410641946
            ],
            [
              -71.80170358480949,
              42.28441321210233
            ],
            [
              -71.80147232325753,
              42.285098813934326
            ],
            [
              -71.80115166768984,
              42.285764281980626
            ],
            [
              -71.8007722368072,
              42.28635998088596
            ],
            [
              -71.80077062348556,
              42.28638436968379
            ],
            [
              -71.80063096262084,
              42.2870835004092
            ],
            [
              -71.80039967967552,
              42.287769099758556
            ],
            [
              -71.80007899928046,
              42.28843456449574
            ],
            [
              -71.79967200735237,
              42.28907348510531
            ],
            [
              -71.79918262146737,
              42.289679707547684
            ],
            [
              -71.79912169737143,
              42.28974069853153
            ],
            [
              -71.79885785037148,
              42.29006753010783
            ],
            [
              -71.7982907757191,
              42.290635213475966
            ],
            [
              -71.7976982649766,
              42.29112056666648
            ],
            [
              -71.79734774446324,
              42.29155473522633
            ],
            [
              -71.79678064291518,
              42.29212241098217
            ],
            [
              -71.79614131839979,
              42.29264607995424
            ],
            [
              -71.79543592765597,
              42.29312069778468
            ],
            [
              -71.79467126428806,
              42.29354169250492
            ],
            [
              -71.79454573779273,
              42.29359754353478
            ],
            [
              -71.79451154618329,
              42.29362054819832
            ],
            [
              -71.79423786925909,
              42.29389447574316
            ],
            [
              -71.79359850576442,
              42.29441813038231
            ],
            [
              -71.79289307616169,
              42.294892732430554
            ],
            [
              -71.7921283744297,
              42.29531371007128
            ],
            [
              -71.79131176597012,
              42.29567700796407
            ],
            [
              -71.79045111663983,
              42.29597912634196
            ],
            [
              -71.78955471694199,
              42.296217154754906
            ],
            [
              -71.78935754984293,
              42.29625380112925
            ],
            [
              -71.78881326771004,
              42.296699514389616
            ],
            [
              -71.78810777672844,
              42.297174086823304
            ],
            [
              -71.78734301553692,
              42.29759503239848
            ],
            [
              -71.78652635011032,
              42.297958296083515
            ],
            [
              -71.78566564685468,
              42.29826037844093
            ],
            [
              -71.7850842926822,
              42.29841471823509
            ],
            [
              -71.78468241076006,
              42.29859346883418
            ],
            [
              -71.78420003524604,
              42.29876275886414
            ],
            [
              -71.78358598792346,
              42.299100707232334
            ],
            [
              -71.78276928145638,
              42.29946394407713
            ],
            [
              -71.7819085397475,
              42.29976599816826
            ],
            [
              -71.78174651349343,
              42.29980900677642
            ],
            [
              -71.78118246006206,
              42.3001883552284
            ],
            [
              -71.78041761628914,
              42.300609254414596
            ],
            [
              -71.77960087212516,
              42.30097246860795
            ],
            [
              -71.77874009473518,
              42.301274498847654
            ],
            [
              -71.77784357585682,
              42.30151243553268
            ],
            [
              -71.77691995187027,
              42.30168398647679
            ],
            [
              -71.77597812053224,
              42.30178749901155
            ],
            [
              -71.77502715518014,
              42.301821975923104
            ],
            [
              -71.7740762172358,
              42.301787085068604
            ],
            [
              -71.77313446785669,
              42.30168316257927
            ],
            [
              -71.77221097958959,
              42.30151120961886
            ],
            [
              -71.77131464888211,
              42.30127288272913
            ],
            [
              -71.77045411029944,
              42.30097047785565
            ],
            [
              -71.76963765327598,
              42.300606908208586
            ],
            [
              -71.76887314220758,
              42.30018567617284
            ],
            [
              -71.76816794065672,
              42.299710839539344
            ],
            [
              -71.76752884040266,
              42.29918697238416
            ],
            [
              -71.7669619960213,
              42.298619120973825
            ],
            [
              -71.76647286562513,
              42.298012755123196
            ],
            [
              -71.76606615833371,
              42.29737371547616
            ],
            [
              -71.76574578897886,
              42.29670815721809
            ],
            [
              -71.76551484047893,
              42.29602249076422
            ],
            [
              -71.7653755342414,
              42.295323319995894
            ],
            [
              -71.7653292088754,
              42.294617378640886
            ],
            [
              -71.76537630741488,
              42.2939114654113
            ],
            [
              -71.76551637317135,
              42.29321237852386
            ],
            [
              -71.76574805425118,
              42.29252685023395
            ],
            [
              -71.76606911668986,
              42.29186148201292
            ],
            [
              -71.76647646607184,
              42.29122268099329
            ],
            [
              -71.76696617742391,
              42.29061659829245
            ],
            [
              -71.76753353309084,
              42.290049069808
            ],
            [
              -71.76817306822517,
              42.28952556005384
            ],
            [
              -71.76844810879322,
              42.28934061044376
            ],
            [
              -71.76898097047918,
              42.28890440778547
            ],
            [
              -71.76968651271144,
              42.28842995228605
            ],
            [
              -71.77045128056555,
              42.28800912373023
            ],
            [
              -71.77126790981687,
              42.287645973832106
            ],
            [
              -71.77212853735163,
              42.28734399891489
            ],
            [
              -71.77229904562223,
              42.28729874591086
            ],
            [
              -71.77291343663025,
              42.28696063822449
            ],
            [
              -71.77373003820071,
              42.28659747073132
            ],
            [
              -71.77420827488007,
              42.28642965398097
            ],
            [
              -71.77481902997883,
              42.28609352678342
            ],
            [
              -71.7756356094077,
              42.28573034566935
            ],
            [
              -71.77649619001329,
              42.28542833788222
            ],
            [
              -71.77675075440834,
              42.285360763210875
            ],
            [
              -71.77679080750316,
              42.28533871857028
            ],
            [
              -71.77760736586113,
              42.284975523371855
            ],
            [
              -71.7784679267782,
              42.28467350075245
            ],
            [
              -71.7793642045618,
              42.28443555847089
            ],
            [
              -71.77938814284636,
              42.28443111058765
            ],
            [
              -71.7795637185557,
              42.28428733617491
            ],
            [
              -71.78026912986958,
              42.283812815203454
            ],
            [
              -71.78055099319646,
              42.28365766386809
            ],
            [
              -71.7809556106405,
              42.28332631851477
            ],
            [
              -71.78166100079078,
              42.28285178890355
            ],
            [
              -71.78194940443744,
              42.28269302957738
            ],
            [
              -71.7823226023384,
              42.28238739938683
            ],
            [
              -71.78241258240915,
              42.282326865829724
            ],
            [
              -71.78253562466978,
              42.281711786963946
            ],
            [
              -71.7827670790986,
              42.281026222920865
            ],
            [
              -71.78308790406467,
              42.280360805728066
            ],
            [
              -71.78310708644581,
              42.28033070335736
            ],
            [
              -71.78314084430153,
              42.280161936766554
            ],
            [
              -71.78337228649565,
              42.279476371315745
            ],
            [
              -71.78369309723054,
              42.278810952249096
            ],
            [
              -71.78396049116917,
              42.2783913174698
            ],
            [
              -71.78404635499983,
              42.277962011307324
            ],
            [
              -71.78427777932588,
              42.27727644376474
            ],
            [
              -71.78459856937378,
              42.27661102190854
            ],
            [
              -71.78500563335189,
              42.275972153388594
            ],
            [
              -71.7851069600461,
              42.27584665683452
            ],
            [
              -71.78517497419503,
              42.2757399097522
            ],
            [
              -71.78522509521106,
              42.2755914197843
            ],
            [
              -71.78554586674622,
              42.27492599508186
            ],
            [
              -71.78595291031189,
              42.27428712301098
            ],
            [
              -71.78625360288387,
              42.273914683895946
            ],
            [
              -71.78636380670896,
              42.27368605836608
            ],
            [
              -71.78677083403458,
              42.27304718325346
            ],
            [
              -71.78726021017233,
              42.27244101199472
            ],
            [
              -71.78745096772107,
              42.272250047273516
            ],
            [
              -71.7877204479395,
              42.2719162439764
            ],
            [
              -71.788287449629,
              42.27134861099541
            ],
            [
              -71.78844291692134,
              42.271221249525226
            ],
            [
              -71.78857199747247,
              42.270953429509184
            ],
            [
              -71.78892282415262,
              42.27040270750014
            ],
            [
              -71.78888497781979,
              42.269829011780736
            ],
            [
              -71.7887705474988,
              42.26948952583618
            ],
            [
              -71.7886310425825,
              42.268790380065425
            ],
            [
              -71.78861498125097,
              42.26854689144388
            ],
            [
              -71.7883914804361,
              42.267883794796546
            ],
            [
              -71.78825198324591,
              42.267184648368634
            ],
            [
              -71.78822418533377,
              42.266763183685335
            ],
            [
              -71.78784152893932,
              42.266162031659476
            ],
            [
              -71.78752108847016,
              42.26549653057859
            ],
            [
              -71.78742918956766,
              42.265223852579865
            ],
            [
              -71.78680302689364,
              42.2648021851228
            ],
            [
              -71.78616412490358,
              42.2642784185847
            ],
            [
              -71.7855974259454,
              42.26371065578696
            ],
            [
              -71.78518882849929,
              42.26320409492897
            ],
            [
              -71.78472810670566,
              42.263187222083104
            ],
            [
              -71.78378691439156,
              42.263083386353266
            ],
            [
              -71.78286396057642,
              42.26291151800282
            ],
            [
              -71.78196813655657,
              42.26267327275785
            ],
            [
              -71.78110807201398,
              42.2623709457767
            ],
            [
              -71.78029205181511,
              42.26200744951837
            ],
            [
              -71.77952793614726,
              42.261586285659966
            ],
            [
              -71.77882308476434,
              42.261111511334754
            ],
            [
              -71.77825111795153,
              42.26064250235485
            ],
            [
              -71.77777598602748,
              42.26032244943577
            ],
            [
              -71.77713720396589,
              42.259798632215926
            ],
            [
              -71.7769161133498,
              42.259577063194534
            ],
            [
              -71.77678299662895,
              42.259487390812644
            ],
            [
              -71.77614423121211,
              42.25896356798734
            ],
            [
              -71.77557766972463,
              42.25839575516999
            ],
            [
              -71.77528508594362,
              42.25803289627439
            ],
            [
              -71.77521040880538,
              42.258024650955676
            ],
            [
              -71.77456617461795,
              42.257904624520066
            ],
            [
              -71.77428335325885,
              42.25795718379688
            ],
            [
              -71.77334216850277,
              42.25806067554376
            ],
            [
              -71.77239185890826,
              42.25809513093774
            ],
            [
              -71.77144157957585,
              42.25806021804345
            ],
            [
              -71.7705004853142,
              42.25795627320432
            ],
            [
              -71.7697781469193,
              42.2578216633224
            ],
            [
              -71.7694866288536,
              42.25785370759055
            ],
            [
              -71.76853632026898,
              42.257888131039905
            ],
            [
              -71.76765199444831,
              42.25785561159992
            ],
            [
              -71.76703834984085,
              42.25787783098559
            ],
            [
              -71.76608807672625,
              42.2578428737344
            ],
            [
              -71.76555448792772,
              42.25778391362599
            ],
            [
              -71.76492400929324,
              42.257806730974934
            ],
            [
              -71.76397373841434,
              42.25777175620536
            ],
            [
              -71.76303266071008,
              42.25766775008681
            ],
            [
              -71.76210984225254,
              42.257495714588515
            ],
            [
              -71.76121417303294,
              42.2572573070469
            ],
            [
              -71.76035428124068,
              42.25695482418384
            ],
            [
              -71.75953845007668,
              42.25659117995994
            ],
            [
              -71.75877453790575,
              42.25616987747755
            ],
            [
              -71.75806990252008,
              42.255694975205046
            ],
            [
              -71.75743133024494,
              42.255171047849586
            ],
            [
              -71.75691265224137,
              42.25465095457965
            ],
            [
              -71.75663335123011,
              42.254526445588155
            ],
            [
              -71.75586948330641,
              42.25410512361082
            ],
            [
              -71.75548078795143,
              42.25384312990297
            ],
            [
              -71.75484221389299,
              42.253673104807646
            ],
            [
              -71.75398240123357,
              42.253370573994886
            ],
            [
              -71.75316665286141,
              42.253006884232214
            ],
            [
              -71.75240282634326,
              42.2525855390605
            ],
            [
              -71.75169827864572,
              42.25211059735929
            ],
            [
              -71.75105979524902,
              42.251586634215364
            ],
            [
              -71.75049352478759,
              42.25101869681835
            ],
            [
              -71.75000491984731,
              42.25041225580996
            ],
            [
              -71.74959868448913,
              42.24977315255646
            ],
            [
              -71.74927872900294,
              42.24910754285448
            ],
            [
              -71.74904813232553,
              42.24842183761344
            ],
            [
              -71.74903599411311,
              42.24836078942869
            ],
            [
              -71.74880473718675,
              42.24817098956458
            ],
            [
              -71.74823851748677,
              42.24760304070298
            ],
            [
              -71.74774996048647,
              42.24699658973385
            ],
            [
              -71.74758744276146,
              42.2467408816069
            ],
            [
              -71.74740792874054,
              42.24661984571138
            ],
            [
              -71.74676953619546,
              42.24609585819615
            ],
            [
              -71.74620335329783,
              42.24552789908699
            ],
            [
              -71.7457148317902,
              42.244921439234474
            ],
            [
              -71.74530867492993,
              42.24428232018616
            ],
            [
              -71.74498879225123,
              42.24361669789062
            ],
            [
              -71.74475826198997,
              42.242930983378294
            ],
            [
              -71.74475521129499,
              42.24291563347327
            ],
            [
              -71.74468839259441,
              42.242716877642124
            ],
            [
              -71.7445494333756,
              42.242017675145256
            ],
            [
              -71.74450337893833,
              42.241311718861894
            ],
            [
              -71.74455066971457,
              42.24060580764696
            ],
            [
              -71.74469084717195,
              42.239906739697176
            ],
            [
              -71.74492255834875,
              42.23922124708513
            ],
            [
              -71.74524356899796,
              42.23855593093858
            ],
            [
              -71.74565078520959,
              42.23791719788878
            ],
            [
              -71.74614028329911,
              42.237311198399034
            ],
            [
              -71.74670734767012,
              42.23674376756646
            ],
            [
              -71.74734651628445,
              42.236220368965554
            ],
            [
              -71.74805163329889,
              42.23574604207303
            ],
            [
              -71.74881590836088,
              42.235325353778634
            ],
            [
              -71.74963198199137,
              42.23496235444724
            ],
            [
              -71.75049199642572,
              42.23466053895357
            ],
            [
              -71.75138767123178,
              42.23442281306333
            ],
            [
              -71.75231038297898,
              42.234251465483055
            ],
            [
              -71.75325124819418,
              42.234148145846326
            ],
            [
              -71.75420120880902,
              42.23411384884765
            ],
            [
              -71.75515111927955,
              42.23414890467552
            ],
            [
              -71.75609183454392,
              42.23425297583693
            ],
            [
              -71.75701429797557,
              42.234425060403126
            ],
            [
              -71.75790962848896,
              42.23466350164599
            ],
            [
              -71.75876920596417,
              42.234966003972445
            ],
            [
              -71.75958475417097,
              42.2353296550044
            ],
            [
              -71.76034842039775,
              42.23575095359253
            ],
            [
              -71.76105285102118,
              42.23622584349551
            ],
            [
              -71.76169126229101,
              42.236749752401835
            ],
            [
              -71.76225750564969,
              42.23731763591992
            ],
            [
              -71.76274612695812,
              42.23792402611468
            ],
            [
              -71.76299138031636,
              42.23830978754998
            ],
            [
              -71.76316821491099,
              42.23842898887309
            ],
            [
              -71.76347042255372,
              42.23859568886073
            ],
            [
              -71.76417490822142,
              42.23907055935488
            ],
            [
              -71.76469158730985,
              42.23949451986014
            ],
            [
              -71.76509258885704,
              42.23971570291496
            ],
            [
              -71.76579709914527,
              42.240190563353096
            ],
            [
              -71.76643558961938,
              42.24071444549141
            ],
            [
              -71.76700191095935,
              42.241282305196236
            ],
            [
              -71.76702732190002,
              42.24131383511515
            ],
            [
              -71.767381326783,
              42.24160428439365
            ],
            [
              -71.76794766455919,
              42.242172139341314
            ],
            [
              -71.76836838195787,
              42.24269414053771
            ],
            [
              -71.76890669812595,
              42.24313578592859
            ],
            [
              -71.76907880737183,
              42.24330834694462
            ],
            [
              -71.7698442950779,
              42.243336493705684
            ],
            [
              -71.7707851709592,
              42.24344044417302
            ],
            [
              -71.77103577587381,
              42.24348715409777
            ],
            [
              -71.77163495549465,
              42.24337579442443
            ],
            [
              -71.77246339671811,
              42.24328469148768
            ],
            [
              -71.77262886801421,
              42.24324074381817
            ],
            [
              -71.77355165075663,
              42.243069225585465
            ],
            [
              -71.77449261230618,
              42.24296573182847
            ],
            [
              -71.77544269366734,
              42.24293125891768
            ],
            [
              -71.77639274813436,
              42.24296613873495
            ],
            [
              -71.77733362926001,
              42.24307003548154
            ],
            [
              -71.77825627882208,
              42.24324194890772
            ],
            [
              -71.77915181394451,
              42.24348022393293
            ],
            [
              -71.77964043036283,
              42.2436520438925
            ],
            [
              -71.78055548771283,
              42.24368560502069
            ],
            [
              -71.78149638635824,
              42.24378946760114
            ],
            [
              -71.78241905770403,
              42.243961347514485
            ],
            [
              -71.78331461866459,
              42.244199590002765
            ],
            [
              -71.78417444690308,
              42.244501901386464
            ],
            [
              -71.78460768226266,
              42.244694921369366
            ],
            [
              -71.78502840978678,
              42.24477328440601
            ],
            [
              -71.78592399204874,
              42.24501150648383
            ],
            [
              -71.78678384377072,
              42.24531379826093
            ],
            [
              -71.78759968608414,
              42.24567724938644
            ],
            [
              -71.78836366344784,
              42.246098360635955
            ],
            [
              -71.78906841924481,
              42.24657307757233
            ],
            [
              -71.78970716659585,
              42.24709682954993
            ],
            [
              -71.79027375370903,
              42.24766457368886
            ],
            [
              -71.79076272313664,
              42.2482708433969
            ],
            [
              -71.79116936436802,
              42.24890980097365
            ],
            [
              -71.79131116707049,
              42.24920434148147
            ],
            [
              -71.79138702846183,
              42.249298397471904
            ],
            [
              -71.79146839752889,
              42.249426249760575
            ],
            [
              -71.79183250288584,
              42.24946640396755
            ],
            [
              -71.7927552850186,
              42.24963820054916
            ],
            [
              -71.79365096516922,
              42.24987636208216
            ],
            [
              -71.79451091985416,
              42.25017859566643
            ],
            [
              -71.79532686921421,
              42.25054199151146
            ],
            [
              -71.7960909566782,
              42.250963050925215
            ],
            [
              -71.79610265063816,
              42.250970925914174
            ],
            [
              -71.79613311507352,
              42.25098163190452
            ],
            [
              -71.79694908409571,
              42.25134501615707
            ],
            [
              -71.79771319204191,
              42.251766064703666
            ],
            [
              -71.7984180810385,
              42.25224072371104
            ],
            [
              -71.79905696292437,
              42.25276442309159
            ],
            [
              -71.79962368461274,
              42.25333212047214
            ],
            [
              -71.7997110330724,
              42.253440387465474
            ],
            [
              -71.80001926485347,
              42.25323284452414
            ],
            [
              -71.80078340558698,
              42.2528118111934
            ],
            [
              -71.80145429991494,
              42.25251306037369
            ],
            [
              -71.80146920824939,
              42.252503021574164
            ],
            [
              -71.80147091675718,
              42.252502080172256
            ],
            [
              -71.80198939651808,
              42.25215294913103
            ],
            [
              -71.80275351111226,
              42.25173190259441
            ],
            [
              -71.80356948682841,
              42.25136852048237
            ],
            [
              -71.80380773273583,
              42.25128479567024
            ],
            [
              -71.80392911823263,
              42.25120305223694
            ],
            [
              -71.80396385760484,
              42.25118390899256
            ],
            [
              -71.80455920364142,
              42.25078298562052
            ],
            [
              -71.80532328460772,
              42.25036192186192
            ],
            [
              -71.80610628593836,
              42.25001319309556
            ],
            [
              -71.80629933805172,
              42.24988317807384
            ],
            [
              -71.8070633965842,
              42.24946210265596
            ],
            [
              -71.80787931830552,
              42.249098689736954
            ],
            [
              -71.80819747813281,
              42.24898686258329
            ],
            [
              -71.80858894943316,
              42.24872319974773
            ],
            [
              -71.80935153363723,
              42.248302905461216
            ],
            [
              -71.80939412083579,
              42.24826798717803
            ],
            [
              -71.81009890702623,
              42.247793279829736
            ],
            [
              -71.81086291506664,
              42.24737217894609
            ],
            [
              -71.81167878804483,
              42.2470087388644
            ],
            [
              -71.81180240704201,
              42.24696528281789
            ],
            [
              -71.81239902429692,
              42.24656340200487
            ],
            [
              -71.81316300219875,
              42.246142285708636
            ],
            [
              -71.81358421367766,
              42.245954638248904
            ],
            [
              -71.81377877487796,
              42.24582357529275
            ],
            [
              -71.81454273467646,
              42.2454024497513
            ],
            [
              -71.8153585611507,
              42.24503898336773
            ],
            [
              -71.81591010064407,
              42.24484507027857
            ],
            [
              -71.81617406974185,
              42.244628589262845
            ],
            [
              -71.81687876459053,
              42.24415383995178
            ],
            [
              -71.81764268362608,
              42.24373269363871
            ],
            [
              -71.8184584707927,
              42.24336920509851
            ],
            [
              -71.81861058781399,
              42.24331571694041
            ],
            [
              -71.81865262558114,
              42.243292540627664
            ],
            [
              -71.81869648690198,
              42.24327299702476
            ],
            [
              -71.8187141138729,
              42.24325853990115
            ],
            [
              -71.81941877443127,
              42.24278377487016
            ],
            [
              -71.82018266004557,
              42.242362611538404
            ],
            [
              -71.8205591303695,
              42.242194854699704
            ],
            [
              -71.82073872738589,
              42.24207384498629
            ],
            [
              -71.82150259565768,
              42.241652672810986
            ],
            [
              -71.82186621961145,
              42.241490632880044
            ],
            [
              -71.82212847906757,
              42.24131391879923
            ],
            [
              -71.82289232893002,
              42.240892737312095
            ],
            [
              -71.82370804937752,
              42.2405292112523
            ],
            [
              -71.82408220563568,
              42.2403976210787
            ],
            [
              -71.82437778975014,
              42.24019843838109
            ],
            [
              -71.82514161119855,
              42.23977724183157
            ],
            [
              -71.82595730436621,
              42.23941369970333
            ],
            [
              -71.82681701514696,
              42.23911131209705
            ],
            [
              -71.82688030070487,
              42.239094469107194
            ],
            [
              -71.82769774046426,
              42.23880694026297
            ],
            [
              -71.82859318372748,
              42.238568611562876
            ],
            [
              -71.82951574660574,
              42.238396642896774
            ],
            [
              -71.83025598337973,
              42.238314851681906
            ],
            [
              -71.83064746748923,
              42.238177135059345
            ],
            [
              -71.83154289074639,
              42.23793878330148
            ],
            [
              -71.8324654364394,
              42.23776679088716
            ],
            [
              -71.83340622269145,
              42.237662813657394
            ],
            [
              -71.83355694125757,
              42.237657267401985
            ],
            [
              -71.83362161111316,
              42.237645209856176
            ],
            [
              -71.83456239366072,
              42.237541223139054
            ],
            [
              -71.8355123607,
              42.23750625253972
            ],
            [
              -71.8364623666249,
              42.23754063473083
            ],
            [
              -71.83740326545556,
              42.23764403870375
            ],
            [
              -71.83832599879999,
              42.237815468952235
            ],
            [
              -71.83922168297708,
              42.2380532750469
            ],
            [
              -71.84008169446584,
              42.23835516750919
            ],
            [
              -71.840897752862,
              42.23871823983244
            ],
            [
              -71.84166200054713,
              42.23913899643924
            ],
            [
              -71.84236707830509,
              42.23961338630705
            ],
            [
              -71.84300619616052,
              42.24013684193973
            ],
            [
              -71.84357319875814,
              42.24070432331138
            ],
            [
              -71.84406262465362,
              42.241310366360764
            ],
            [
              -71.84446975894487,
              42.24194913557115
            ],
            [
              -71.84479067873528,
              42.24261448013079
            ],
            [
              -71.84502229098892,
              42.24329999313456
            ],
            [
              -71.84516236241068,
              42.24399907325803
            ],
            [
              -71.84520954105926,
              42.24470498831101
            ],
            [
              -71.84516336948163,
              42.24541094005945
            ],
            [
              -71.84502428923744,
              42.2461101296917
            ],
            [
              -71.84479363676573,
              42.24679582329905
            ],
            [
              -71.84447363062874,
              42.24746141673959
            ],
            [
              -71.8440673502516,
              42.248100499260424
            ],
            [
              -71.8435787063584,
              42.24870691526444
            ],
            [
              -71.84301240338579,
              42.24927482362612
            ],
            [
              -71.84237389423336,
              42.24979875398345
            ],
            [
              -71.84166932778417,
              42.25027365946249
            ],
            [
              -71.84090548969948,
              42.25069496532544
            ],
            [
              -71.8400897370577,
              42.251058613071436
            ],
            [
              -71.83922992746702,
              42.25136109956438
            ],
            [
              -71.83833434333614,
              42.25159951080878
            ],
            [
              -71.8374116120344,
              42.251771550047216
            ],
            [
              -71.83647062271291,
              42.25187555990728
            ],
            [
              -71.83631987055347,
              42.25188110998285
            ]
          ]
        ]
      }
    }
  ]
}