{
  "type": "FeatureCollection",
  "features": [
    {
      "type": "Feature",
      "properties": {},
      "geometry": {
        "type": "Polygon",
        "coordinates": [
          [
            [
              -71.83560405922559,
              42.24830631789188
            ],
            [
              -71.83530759043444,
              42.24836158952333
            ],
            [
              -71.83483711977286,
              42.248413586815076
            ],
            [
              -71.83436205437208,
              42.248431070277995
            ],
            [
              -71.83415807399538,
              42.24842368612125
            ],
            [
              -71.83410435527259,
              42.24845331122298
            ],
            [
              -71.83369647503041,
              42.248635111707294
            ],
            [
              -71.83326657244422,
              42.24878633185949
            ],
            [
              -71.83300042289528,
              42.24885717109052
            ],
            [
              -71.83281564185482,
              42.24893952910261
            ],
            [
              -71.83241930657512,
              42.249078937485564
            ],
            [
              -71.83222854658415,
              42.24923542876736
            ],
            [
              -71.83187622976382,
              42.24947285091469
            ],
            [
              -71.83149428423815,
              42.24968347190474
            ],
            [
              -71.83108638857655,
              42.249865263068486
            ],
            [
              -71.83076508530775,
              42.24997827197681
            ],
            [
              -71.83048822915218,
              42.250205380364186
            ],
            [
              -71.83013590040851,
              42.25044279712602
            ],
            [
              -71.82975394324204,
              42.25065341228541
            ],
            [
              -71.82934603633441,
              42.25083519722954
            ],
            [
              -71.8289161084184,
              42.2509864010177
            ],
            [
              -71.828829147463,
              42.25100954237964
            ],
            [
              -71.82864616846118,
              42.251132836751175
            ],
            [
              -71.82826420217583,
              42.25134344692446
            ],
            [
              -71.82785628654474,
              42.25152522654877
            ],
            [
              -71.82780955708765,
              42.25154166028587
            ],
            [
              -71.82778772327556,
              42.25156354677606
            ],
            [
              -71.82746839548454,
              42.25182546992228
            ],
            [
              -71.82711604640072,
              42.25206287734118
            ],
            [
              -71.82673406941397,
              42.252273482384965
            ],
            [
              -71.82632614339693,
              42.25245525653821
            ],
            [
              -71.82630731055004,
              42.252461879239654
            ],
            [
              -71.82627838339101,
              42.25248560520355
            ],
            [
              -71.8259260261706,
              42.252723008939675
            ],
            [
              -71.82554404124208,
              42.2529336099963
            ],
            [
              -71.82513610755447,
              42.2531153798964
            ],
            [
              -71.8247061540986,
              42.253266567844165
            ],
            [
              -71.82425832205467,
              42.253385717595805
            ],
            [
              -71.82418057571076,
              42.25340020283064
            ],
            [
              -71.82391760801718,
              42.2536637724069
            ],
            [
              -71.82359825362083,
              42.25392568468299
            ],
            [
              -71.82324587833442,
              42.25416308012636
            ],
            [
              -71.82286387580035,
              42.25437367220452
            ],
            [
              -71.82245592513728,
              42.25455543252691
            ],
            [
              -71.82202595549963,
              42.25470661038996
            ],
            [
              -71.82191539770601,
              42.25473602190069
            ],
            [
              -71.82190749945485,
              42.2547439376616
            ],
            [
              -71.82158813129286,
              42.255005844291915
            ],
            [
              -71.82123574245561,
              42.25524323351534
            ],
            [
              -71.82085372671611,
              42.25545381885927
            ],
            [
              -71.8204457633202,
              42.25563557199799
            ],
            [
              -71.820015781545,
              42.255786742297126
            ],
            [
              -71.81982345471187,
              42.255837901921275
            ],
            [
              -71.8197575905703,
              42.255903907451795
            ],
            [
              -71.819438207661,
              42.25616580804316
            ],
            [
              -71.81908580430382,
              42.25640319061353
            ],
            [
              -71.81870377441163,
              42.2566137687544
            ],
            [
              -71.81839588824388,
              42.256750925995945
            ],
            [
              -71.81815829843177,
              42.25694574595536
            ],
            [
              -71.81780588593259,
              42.25718312456117
            ],
            [
              -71.81742384707519,
              42.25739369841049
            ],
            [
              -71.81701586132822,
              42.25757543928828
            ],
            [
              -71.81658585818408,
              42.257726596678246
            ],
            [
              -71.81613797930173,
              42.25784571463092
            ],
            [
              -71.81607390301124,
              42.25785764727542
            ],
            [
              -71.81599757511296,
              42.25793412950604
            ],
            [
              -71.81567816640245,
              42.25819601953491
            ],
            [
              -71.81532573764102,
              42.258433390468895
            ],
            [
              -71.81494368298627,
              42.25864395601147
            ],
            [
              -71.81453568205905,
              42.25882568802766
            ],
            [
              -71.814105664498,
              42.25897683608652
            ],
            [
              -71.81396083012241,
              42.25901535220279
            ],
            [
              -71.81378580393721,
              42.25913323142743
            ],
            [
              -71.81361875557957,
              42.25922529425655
            ],
            [
              -71.81350813978231,
              42.25931598390123
            ],
            [
              -71.8131556966465,
              42.259553348121194
            ],
            [
              -71.81277362801201,
              42.25976390639444
            ],
            [
              -71.81236561363436,
              42.259945630655956
            ],
            [
              -71.81193558328184,
              42.260096770549474
            ],
            [
              -71.81169759817794,
              42.26016005210545
            ],
            [
              -71.81156831321395,
              42.26026604146106
            ],
            [
              -71.81121585751266,
              42.260503399681106
            ],
            [
              -71.81112371734503,
              42.26055417524628
            ],
            [
              -71.81104811125306,
              42.26061615685408
            ],
            [
              -71.8106956516511,
              42.26085351346114
            ],
            [
              -71.8103135669836,
              42.26106406349209
            ],
            [
              -71.80990553716055,
              42.26124577896129
            ],
            [
              -71.80957410122235,
              42.2613622556225
            ],
            [
              -71.80924562335605,
              42.26158345199133
            ],
            [
              -71.8088635294577,
              42.26179399716515
            ],
            [
              -71.8088027891648,
              42.26182104656254
            ],
            [
              -71.80877111857511,
              42.261860305275576
            ],
            [
              -71.80848775338939,
              42.26214417321166
            ],
            [
              -71.80824790685995,
              42.26234078074006
            ],
            [
              -71.80813560043622,
              42.26251720492423
            ],
            [
              -71.80789105190752,
              42.26282033586971
            ],
            [
              -71.80760767847582,
              42.263104201584056
            ],
            [
              -71.80728820895591,
              42.26336606801157
            ],
            [
              -71.80701080573348,
              42.263552854925166
            ],
            [
              -71.80696500280985,
              42.263782341795114
            ],
            [
              -71.80684943886311,
              42.26412514931843
            ],
            [
              -71.80668919334059,
              42.26445789219694
            ],
            [
              -71.80648580889218,
              42.264777365753396
            ],
            [
              -71.80624124372707,
              42.26508049306177
            ],
            [
              -71.80595785277423,
              42.26536435458814
            ],
            [
              -71.8056383650172,
              42.26562621631711
            ],
            [
              -71.80528585722125,
              42.26586355609246
            ],
            [
              -71.8049037243053,
              42.266074087917715
            ],
            [
              -71.80449564664424,
              42.26625578398258
            ],
            [
              -71.80406555461602,
              42.26640689420233
            ],
            [
              -71.803617590736,
              42.2665259630818
            ],
            [
              -71.80315606974325,
              42.26661184374109
            ],
            [
              -71.8031043799939,
              42.26661754021489
            ],
            [
              -71.80310701020517,
              42.26662533822016
            ],
            [
              -71.80317683986593,
              42.26697490246306
            ],
            [
              -71.80319443498858,
              42.267240720189776
            ],
            [
              -71.80326517045569,
              42.26745043176593
            ],
            [
              -71.80333500190099,
              42.26779999586206
            ],
            [
              -71.80335836671584,
              42.2681529605132
            ],
            [
              -71.80334263262934,
              42.268391030696236
            ],
            [
              -71.80336235014846,
              42.2684219914871
            ],
            [
              -71.80352266025234,
              42.268754719846314
            ],
            [
              -71.80363829009951,
              42.26909751650218
            ],
            [
              -71.80370812542446,
              42.26944708027034
            ],
            [
              -71.80373149292946,
              42.26980004474372
            ],
            [
              -71.80370816679748,
              42.27015301070952
            ],
            [
              -71.80368558310589,
              42.270266120071994
            ],
            [
              -71.8037313052114,
              42.2704949793613
            ],
            [
              -71.80375467323302,
              42.27084794376524
            ],
            [
              -71.80373134684429,
              42.27120090967104
            ],
            [
              -71.80366154991584,
              42.271550477796104
            ],
            [
              -71.80366090230021,
              42.27155239833171
            ],
            [
              -71.80368365355591,
              42.271896046768546
            ],
            [
              -71.80366032638481,
              42.272249012595175
            ],
            [
              -71.80359052790791,
              42.27259858061294
            ],
            [
              -71.80347492957718,
              42.27294138420771
            ],
            [
              -71.80331464398058,
              42.27327412185866
            ],
            [
              -71.80311121415373,
              42.273593588938844
            ],
            [
              -71.80286659874272,
              42.27389670858453
            ],
            [
              -71.80271653406334,
              42.27404698923758
            ],
            [
              -71.80254171185021,
              42.2742636198749
            ],
            [
              -71.80237135731058,
              42.274434217159104
            ],
            [
              -71.80232057090605,
              42.27468853300855
            ],
            [
              -71.80220496187513,
              42.27503133519819
            ],
            [
              -71.80204466430396,
              42.27536407095294
            ],
            [
              -71.80184122134338,
              42.27568353566412
            ],
            [
              -71.80159659176594,
              42.275986652490744
            ],
            [
              -71.80131313112085,
              42.276270501999804
            ],
            [
              -71.80099356906281,
              42.276532350291546
            ],
            [
              -71.80064098307271,
              42.27676967533906
            ],
            [
              -71.80045401849348,
              42.27687265201732
            ],
            [
              -71.80042337415479,
              42.276963506913354
            ],
            [
              -71.80026306231646,
              42.27729624006596
            ],
            [
              -71.80005960414445,
              42.27761570150936
            ],
            [
              -71.79981495855773,
              42.277918814434045
            ],
            [
              -71.79960978717128,
              42.27812425228457
            ],
            [
              -71.799599427273,
              42.27814051850912
            ],
            [
              -71.7993547774514,
              42.27844363042454
            ],
            [
              -71.79934554151691,
              42.27845287820881
            ],
            [
              -71.79925528372796,
              42.278720453845125
            ],
            [
              -71.79909496129241,
              42.27905318526297
            ],
            [
              -71.79889149156966,
              42.2793726445363
            ],
            [
              -71.79864683358994,
              42.27967575487653
            ],
            [
              -71.79858287595845,
              42.279739792121724
            ],
            [
              -71.79850846234308,
              42.279960383830414
            ],
            [
              -71.79834813283607,
              42.28029311413227
            ],
            [
              -71.7981446553526,
              42.28061257201159
            ],
            [
              -71.79804021230896,
              42.280741963305765
            ],
            [
              -71.79803815817384,
              42.28074622612939
            ],
            [
              -71.79783467766707,
              42.28106568343353
            ],
            [
              -71.7977012701388,
              42.28123095527018
            ],
            [
              -71.79770947861785,
              42.28135509932261
            ],
            [
              -71.79768611462158,
              42.28170806334924
            ],
            [
              -71.7976162726904,
              42.282057627152234
            ],
            [
              -71.79750062469448,
              42.282400424158
            ],
            [
              -71.79734028369985,
              42.282733152909096
            ],
            [
              -71.79713679327551,
              42.28305260886419
            ],
            [
              -71.79702858579847,
              42.28318665496226
            ],
            [
              -71.79701703701673,
              42.28336109139907
            ],
            [
              -71.79694718956179,
              42.28371065469354
            ],
            [
              -71.7968315349164,
              42.28405345092556
            ],
            [
              -71.79667118621059,
              42.284386178645114
            ],
            [
              -71.79646768708753,
              42.28470563332082
            ],
            [
              -71.79622299686058,
              42.28500873820831
            ],
            [
              -71.79593947166293,
              42.28529257398942
            ],
            [
              -71.79593796883088,
              42.285293805079476
            ],
            [
              -71.79594428006449,
              42.285325407896835
            ],
            [
              -71.79596761010856,
              42.28567837296966
            ],
            [
              -71.79594423479264,
              42.28603133637429
            ],
            [
              -71.79587437845805,
              42.28638089885209
            ],
            [
              -71.79575871311351,
              42.2867236938422
            ],
            [
              -71.79559835199206,
              42.287056419906556
            ],
            [
              -71.79539483885638,
              42.287375872529665
            ],
            [
              -71.7951501331547,
              42.28767897498695
            ],
            [
              -71.79507805848547,
              42.28775112393878
            ],
            [
              -71.79507005636347,
              42.28776368452323
            ],
            [
              -71.79482534760429,
              42.28806678626711
            ],
            [
              -71.79454180242212,
              42.288350618441726
            ],
            [
              -71.79422215128582,
              42.288612447314236
            ],
            [
              -71.79386947253427,
              42.28884975104457
            ],
            [
              -71.79377870859605,
              42.28889972428851
            ],
            [
              -71.79376344483363,
              42.28893139111994
            ],
            [
              -71.79355991639362,
              42.289250840382834
            ],
            [
              -71.79331519464047,
              42.28955393882635
            ],
            [
              -71.79303163601104,
              42.289837767194385
            ],
            [
              -71.79271197110371,
              42.29009959179067
            ],
            [
              -71.79235927839,
              42.29033689081642
            ],
            [
              -71.79197695457009,
              42.29054737866747
            ],
            [
              -71.79156868185781,
              42.29072902795691
            ],
            [
              -71.79150439074803,
              42.290751598697675
            ],
            [
              -71.79124195890982,
              42.290966535341
            ],
            [
              -71.79088925584354,
              42.29120382981129
            ],
            [
              -71.79085642358096,
              42.29122190477081
            ],
            [
              -71.79077242716231,
              42.29132592757849
            ],
            [
              -71.79048884917208,
              42.29160974957308
            ],
            [
              -71.79016916477684,
              42.29187156700244
            ],
            [
              -71.7898164526358,
              42.29210885813678
            ],
            [
              -71.78943410963632,
              42.29231933744794
            ],
            [
              -71.78902581817702,
              42.29250097763125
            ],
            [
              -71.78859551069566,
              42.29265202914007
            ],
            [
              -71.78814733178334,
              42.2927710370446
            ],
            [
              -71.78768559825087,
              42.29285685505219
            ],
            [
              -71.78764330463294,
              42.29286150824309
            ],
            [
              -71.78736648126468,
              42.29291295764655
            ],
            [
              -71.78689563986705,
              42.292964757837886
            ],
            [
              -71.78648444947748,
              42.29297970770192
            ],
            [
              -71.78645488093593,
              42.29302610414099
            ],
            [
              -71.78623857792451,
              42.29329393808038
            ],
            [
              -71.78623209375627,
              42.29330411236475
            ],
            [
              -71.78598732118662,
              42.2936071949592
            ],
            [
              -71.785703711484,
              42.29389100501112
            ],
            [
              -71.78538399573878,
              42.29415280900064
            ],
            [
              -71.78503125291222,
              42.294390085327365
            ],
            [
              -71.78464888018728,
              42.29460054860573
            ],
            [
              -71.78424056024902,
              42.294782171685455
            ],
            [
              -71.78381022580953,
              42.294933205184634
            ],
            [
              -71.78336202171968,
              42.29505219434696
            ],
            [
              -71.7830244573131,
              42.295114917178196
            ],
            [
              -71.78280501991314,
              42.295235691561714
            ],
            [
              -71.78239669057585,
              42.29541730805855
            ],
            [
              -71.78196634740833,
              42.295568334624434
            ],
            [
              -71.78162719182995,
              42.295658366742494
            ],
            [
              -71.78162712604481,
              42.295658420605236
            ],
            [
              -71.7812743607178,
              42.29589568531732
            ],
            [
              -71.7808919663801,
              42.29610613601788
            ],
            [
              -71.78048362592499,
              42.29628774567779
            ],
            [
              -71.78005327226224,
              42.29643876504436
            ],
            [
              -71.77960505042799,
              42.29655773949741
            ],
            [
              -71.77914327764667,
              42.29664352306645
            ],
            [
              -71.7791170199825,
              42.29664640979291
            ],
            [
              -71.7789139999329,
              42.29678294816388
            ],
            [
              -71.77888458056533,
              42.2967991380386
            ],
            [
              -71.77877863987274,
              42.29690513006488
            ],
            [
              -71.77845888020637,
              42.29716691461473
            ],
            [
              -71.77810609457072,
              42.29740416952127
            ],
            [
              -71.77772368056121,
              42.29761460960516
            ],
            [
              -71.77731532126063,
              42.297796207939534
            ],
            [
              -71.77688494976036,
              42.297947215380795
            ],
            [
              -71.77643671126837,
              42.2980661774236
            ],
            [
              -71.77597492316963,
              42.298151948217026
            ],
            [
              -71.77550403342407,
              42.29820370160669
            ],
            [
              -71.77502857770388,
              42.29822093909629
            ],
            [
              -71.77455313568383,
              42.29820349465156
            ],
            [
              -71.77408228690663,
              42.29815153630033
            ],
            [
              -71.7736205666496,
              42.29806556451325
            ],
            [
              -71.77317242221882,
              42.2979464073808
            ],
            [
              -71.77274217009268,
              42.297795212633076
            ],
            [
              -71.77233395432867,
              42.29761343657958
            ],
            [
              -71.77195170663487,
              42.297402830075676
            ],
            [
              -71.7715991084913,
              42.29716542165109
            ],
            [
              -71.77127955568665,
              42.29690349796365
            ],
            [
              -71.77099612561199,
              42.29661958176646
            ],
            [
              -71.77075154762684,
              42.296316407601545
            ],
            [
              -71.77054817678267,
              42.29599689545416
            ],
            [
              -71.7703879711566,
              42.295664122622014
            ],
            [
              -71.77027247301308,
              42.29532129407075
            ],
            [
              -71.77020279397428,
              42.29497171156142
            ],
            [
              -71.77017960434098,
              42.294618741847486
            ],
            [
              -71.7702031266659,
              42.29426578424803
            ],
            [
              -71.77027313364019,
              42.29391623790935
            ],
            [
              -71.77038895031241,
              42.29357346907042
            ],
            [
              -71.77054946061735,
              42.29324077864735
            ],
            [
              -71.77075311815065,
              42.29292137044903
            ],
            [
              -71.77099796108483,
              42.29261832032961
            ],
            [
              -71.77128163108164,
              42.29233454657488
            ],
            [
              -71.7716013960182,
              42.292072781807285
            ],
            [
              -71.77195417630764,
              42.2918355466798
            ],
            [
              -71.77198359513976,
              42.29181935856805
            ],
            [
              -71.77208953869881,
              42.29171337272214
            ],
            [
              -71.77240929714849,
              42.29145160567376
            ],
            [
              -71.77276207094026,
              42.29121436803567
            ],
            [
              -71.77314446274673,
              42.291003944251266
            ],
            [
              -71.77355279015268,
              42.290822360542855
            ],
            [
              -71.77398312111005,
              42.29067136540856
            ],
            [
              -71.77443131179155,
              42.290552412793005
            ],
            [
              -71.77476481585529,
              42.29049046644228
            ],
            [
              -71.77487155480641,
              42.29040307878631
            ],
            [
              -71.7752243135091,
              42.29016583353238
            ],
            [
              -71.77560669077972,
              42.28995540150147
            ],
            [
              -71.776015004343,
              42.289773808995356
            ],
            [
              -71.77644532228408,
              42.28962280459687
            ],
            [
              -71.77678024397167,
              42.28953390489206
            ],
            [
              -71.77712997177039,
              42.2892986841984
            ],
            [
              -71.77751233745482,
              42.28908824578329
            ],
            [
              -71.77792063994553,
              42.28890664646659
            ],
            [
              -71.77835094743425,
              42.28875563489675
            ],
            [
              -71.77879911631962,
              42.288636665176654
            ],
            [
              -71.77902666482848,
              42.288594389042736
            ],
            [
              -71.77910182165962,
              42.28854383669479
            ],
            [
              -71.77948417621703,
              42.288333391679245
            ],
            [
              -71.77989246817052,
              42.28815178532022
            ],
            [
              -71.78032276581325,
              42.28800076633396
            ],
            [
              -71.78077092563865,
              42.28788178889478
            ],
            [
              -71.78123263222547,
              42.28779599863909
            ],
            [
              -71.78170343977457,
              42.2877442216392
            ],
            [
              -71.78211459724986,
              42.28772928889445
            ],
            [
              -71.78214416649833,
              42.28768289353101
            ],
            [
              -71.78238893455013,
              42.28737981882143
            ],
            [
              -71.78267252992151,
              42.287096016639325
            ],
            [
              -71.78299222120812,
              42.286834219880994
            ],
            [
              -71.78334492953208,
              42.28659694950757
            ],
            [
              -71.78372725819631,
              42.286386490277664
            ],
            [
              -71.78388179954416,
              42.28631774139222
            ],
            [
              -71.78406443659009,
              42.286134961733815
            ],
            [
              -71.78438411725548,
              42.28587316105217
            ],
            [
              -71.78473681499649,
              42.28563588635903
            ],
            [
              -71.78511913321785,
              42.2854254224546
            ],
            [
              -71.785268701559,
              42.28535888236553
            ],
            [
              -71.78543144284987,
              42.285196006023796
            ],
            [
              -71.78575111310927,
              42.28493420148943
            ],
            [
              -71.78610380048441,
              42.284696922554176
            ],
            [
              -71.78641641602438,
              42.28452482140389
            ],
            [
              -71.78651637327668,
              42.28436795554017
            ],
            [
              -71.78676110754269,
              42.2840648713252
            ],
            [
              -71.78683318749822,
              42.28399272755234
            ],
            [
              -71.78684119077884,
              42.28398016753419
            ],
            [
              -71.78708592198734,
              42.283677082605585
            ],
            [
              -71.78723344106746,
              42.28352943059866
            ],
            [
              -71.78722166668015,
              42.283470428326446
            ],
            [
              -71.78719838625955,
              42.283117461342
            ],
            [
              -71.7872218093058,
              42.28276449954265
            ],
            [
              -71.78729170946656,
              42.28241494211533
            ],
            [
              -71.78740741281933,
              42.282072155405935
            ],
            [
              -71.78756780439036,
              42.28173944050293
            ],
            [
              -71.78777133891892,
              42.281420001451075
            ],
            [
              -71.78781705412767,
              42.28136338244784
            ],
            [
              -71.78782692418555,
              42.28121462490471
            ],
            [
              -71.78789681928787,
              42.28086506701366
            ],
            [
              -71.7880125165247,
              42.28052227960075
            ],
            [
              -71.7881729009813,
              42.28018956376118
            ],
            [
              -71.78837642746541,
              42.27987012354878
            ],
            [
              -71.78862113541162,
              42.27956703512619
            ],
            [
              -71.7887157795271,
              42.279472296036445
            ],
            [
              -71.78870887375311,
              42.27936762519711
            ],
            [
              -71.78873228697864,
              42.279014662857385
            ],
            [
              -71.78880217464484,
              42.27866510427985
            ],
            [
              -71.78891786294966,
              42.27832231582154
            ],
            [
              -71.78907823706437,
              42.27798959858774
            ],
            [
              -71.7892817518964,
              42.27767015664571
            ],
            [
              -71.78938620778287,
              42.277540773256916
            ],
            [
              -71.78938826239691,
              42.27753651058586
            ],
            [
              -71.78959177420532,
              42.27721706806838
            ],
            [
              -71.7897382868024,
              42.277035588505946
            ],
            [
              -71.78974939081155,
              42.276980043343634
            ],
            [
              -71.78986507090045,
              42.27663725382872
            ],
            [
              -71.79002543575989,
              42.276304535172265
            ],
            [
              -71.79022894038643,
              42.275985091455276
            ],
            [
              -71.79047362442523,
              42.27568199887417
            ],
            [
              -71.79064464933165,
              42.27551078366681
            ],
            [
              -71.79068294833466,
              42.275397286685205
            ],
            [
              -71.79084330574834,
              42.27506456681296
            ],
            [
              -71.79104680225532,
              42.27474512157547
            ],
            [
              -71.79129147757895,
              42.2744420271838
            ],
            [
              -71.79149666403485,
              42.274236604079604
            ],
            [
              -71.79150702537717,
              42.2742203385758
            ],
            [
              -71.7917516964659,
              42.273917243174544
            ],
            [
              -71.79203518946532,
              42.27363341717746
            ],
            [
              -71.7923547739569,
              42.27337159371034
            ],
            [
              -71.79270737209114,
              42.27313429399156
            ],
            [
              -71.79275526049409,
              42.273107921431155
            ],
            [
              -71.79277535584745,
              42.27300736830549
            ],
            [
              -71.79289101227367,
              42.27266457550031
            ],
            [
              -71.79305135114657,
              42.27233185238186
            ],
            [
              -71.79325482771306,
              42.272012403074136
            ],
            [
              -71.7934994818885,
              42.27170930382744
            ],
            [
              -71.7937829571524,
              42.271425473400875
            ],
            [
              -71.79378808144948,
              42.27142127496138
            ],
            [
              -71.79376463133896,
              42.27130380433042
            ],
            [
              -71.79374131888196,
              42.27095083792214
            ],
            [
              -71.79376470091093,
              42.270597874035126
            ],
            [
              -71.79380321453064,
              42.27040513584523
            ],
            [
              -71.79375581793461,
              42.270167704029156
            ],
            [
              -71.79373250594487,
              42.269814737548955
            ],
            [
              -71.79375588760266,
              42.26946177359351
            ],
            [
              -71.79376917887943,
              42.26939525748439
            ],
            [
              -71.79364150227471,
              42.26913016826286
            ],
            [
              -71.7935259265293,
              42.268787361534166
            ],
            [
              -71.79345614818679,
              42.26843779152924
            ],
            [
              -71.79343283850532,
              42.26808482488132
            ],
            [
              -71.79344552907024,
              42.26789326004538
            ],
            [
              -71.79342256846927,
              42.26785719574271
            ],
            [
              -71.79326231375188,
              42.26752445321807
            ],
            [
              -71.79314674299306,
              42.26718164601109
            ],
            [
              -71.79307696851538,
              42.266832075677364
            ],
            [
              -71.79305366153982,
              42.2664791088533
            ],
            [
              -71.79307704575015,
              42.26612614483028
            ],
            [
              -71.79314689516865,
              42.265776582816734
            ],
            [
              -71.79314904573191,
              42.2657702079665
            ],
            [
              -71.79305219215402,
              42.265690822110976
            ],
            [
              -71.7927688041801,
              42.26540695815502
            ],
            [
              -71.7925242424956,
              42.26510382875326
            ],
            [
              -71.79232086199593,
              42.2647843534598
            ],
            [
              -71.79216062085226,
              42.2644516092174
            ],
            [
              -71.79204506167224,
              42.2641088007164
            ],
            [
              -71.79197529666702,
              42.26375922952484
            ],
            [
              -71.79195199696647,
              42.26340626228732
            ],
            [
              -71.79197348899257,
              42.26308192875059
            ],
            [
              -71.79180422707753,
              42.263036929346626
            ],
            [
              -71.79137416781562,
              42.262885803551946
            ],
            [
              -71.79096612374438,
              42.26270409268699
            ],
            [
              -71.7905840249182,
              42.26249354697902
            ],
            [
              -71.79023155138348,
              42.262256194372064
            ],
            [
              -71.78991209772914,
              42.26199432098608
            ],
            [
              -71.7896287403919,
              42.261710449089605
            ],
            [
              -71.78938420803154,
              42.26140731279782
            ],
            [
              -71.78918085526104,
              42.26108783173113
            ],
            [
              -71.78902063998457,
              42.260755082887876
            ],
            [
              -71.78893927475323,
              42.26051365977207
            ],
            [
              -71.78877422513436,
              42.26045565308927
            ],
            [
              -71.78836620419595,
              42.260273932898585
            ],
            [
              -71.78798412869057,
              42.26006337844086
            ],
            [
              -71.78772112151287,
              42.25988625423429
            ],
            [
              -71.78738418976572,
              42.259796659717374
            ],
            [
              -71.78737470631188,
              42.259793326571646
            ],
            [
              -71.78715463939331,
              42.25978527113905
            ],
            [
              -71.78668406615567,
              42.259733364165875
            ],
            [
              -71.78622260911453,
              42.259647442526784
            ],
            [
              -71.78606964872206,
              42.259606766121244
            ],
            [
              -71.78567928523599,
              42.259620963566974
            ],
            [
              -71.78520413032473,
              42.25960356315435
            ],
            [
              -71.78473356003798,
              42.25955164817703
            ],
            [
              -71.7842721069699,
              42.25946571868782
            ],
            [
              -71.78382421585225,
              42.25934660236959
            ],
            [
              -71.78339420072304,
              42.25919544655923
            ],
            [
              -71.78298620335666,
              42.25901370719093
            ],
            [
              -71.78260415335747,
              42.25880313476651
            ],
            [
              -71.78225173030145,
              42.25856575748725
            ],
            [
              -71.7819323282912,
              42.25830386171072
            ],
            [
              -71.78174845837667,
              42.25811961134718
            ],
            [
              -71.78155704566488,
              42.258014107067595
            ],
            [
              -71.78120463092888,
              42.25777672653861
            ],
            [
              -71.78088523723245,
              42.25751482781049
            ],
            [
              -71.7806019404347,
              42.25723093339575
            ],
            [
              -71.78055546652107,
              42.25717330397185
            ],
            [
              -71.78021163622516,
              42.25694169722778
            ],
            [
              -71.77989225085042,
              42.256679795696705
            ],
            [
              -71.77960896224309,
              42.256395898788334
            ],
            [
              -71.7793644984008,
              42.2560927408587
            ],
            [
              -71.77916121327662,
              42.2557732417365
            ],
            [
              -71.77900106412315,
              42.255440478593876
            ],
            [
              -71.77888559266222,
              42.25509765630305
            ],
            [
              -71.77886092885016,
              42.25497392437821
            ],
            [
              -71.77885841468326,
              42.25497186259939
            ],
            [
              -71.7785751383547,
              42.25468796305352
            ],
            [
              -71.77854569597584,
              42.25465144994355
            ],
            [
              -71.77808466470056,
              42.25463453668994
            ],
            [
              -71.77761413719574,
              42.25458259246098
            ],
            [
              -71.77743993809214,
              42.25455014015103
            ],
            [
              -71.7771030974901,
              42.25456236664333
            ],
            [
              -71.77662798291277,
              42.25454493068917
            ],
            [
              -71.7761574572695,
              42.254492980483285
            ],
            [
              -71.77569605272423,
              42.2544070164178
            ],
            [
              -71.77524821354126,
              42.25428786650866
            ],
            [
              -71.77481825325812,
              42.25413667841623
            ],
            [
              -71.77467224400618,
              42.25407161987812
            ],
            [
              -71.77424853022549,
              42.254220383319684
            ],
            [
              -71.77380059653488,
              42.25433933600155
            ],
            [
              -71.77333912397751,
              42.25442509687148
            ],
            [
              -71.7728685574732,
              42.25447683987083
            ],
            [
              -71.7723934295797,
              42.25449406660346
            ],
            [
              -71.77191831681311,
              42.254476611138735
            ],
            [
              -71.77144779554376,
              42.254424641610626
            ],
            [
              -71.77098639789344,
              42.25433865859736
            ],
            [
              -71.77053856805998,
              42.25421949029742
            ],
            [
              -71.77014220535489,
              42.25408009622136
            ],
            [
              -71.76994528205408,
              42.25413238335049
            ],
            [
              -71.76948380578271,
              42.25421812871037
            ],
            [
              -71.76901323766612,
              42.254269855892986
            ],
            [
              -71.76853811027759,
              42.25428706665455
            ],
            [
              -71.76806300012841,
              42.254269595218275
            ],
            [
              -71.76774436681222,
              42.25423439101753
            ],
            [
              -71.76751535278875,
              42.25425956207125
            ],
            [
              -71.76704022507033,
              42.25427676662739
            ],
            [
              -71.76656511541199,
              42.254259288985956
            ],
            [
              -71.76609460015409,
              42.25420729749455
            ],
            [
              -71.76577386101572,
              42.25414751077252
            ],
            [
              -71.7654011325654,
              42.25418847082448
            ],
            [
              -71.76492600480616,
              42.25420566662206
            ],
            [
              -71.7644508962654,
              42.25418818022214
            ],
            [
              -71.76398038327277,
              42.25413618005665
            ],
            [
              -71.76351899787025,
              42.25405016699896
            ],
            [
              -71.76307118413766,
              42.253930969536945
            ],
            [
              -71.76264125536723,
              42.253779735789
            ],
            [
              -71.76223335250126,
              42.25359792244009
            ],
            [
              -71.76185140423351,
              42.2533872807045
            ],
            [
              -71.76149908915971,
              42.25314983945105
            ],
            [
              -71.76117980034208,
              42.25288788565346
            ],
            [
              -71.76089661262928,
              42.25260394235451
            ],
            [
              -71.760652253047,
              42.25230074435695
            ],
            [
              -71.76044930773419,
              42.251981578608465
            ],
            [
              -71.7601394988277,
              42.251872586957475
            ],
            [
              -71.75997327403682,
              42.251798489183756
            ],
            [
              -71.75973618429352,
              42.25171507900098
            ],
            [
              -71.75932830307252,
              42.251533255257236
            ],
            [
              -71.75894637692554,
              42.25132260377402
            ],
            [
              -71.75859408423521,
              42.251085153514026
            ],
            [
              -71.75827481784808,
              42.25082319153763
            ],
            [
              -71.75805357719949,
              42.25060133774371
            ],
            [
              -71.75760858158148,
              42.25055212957369
            ],
            [
              -71.75714723095734,
              42.25046609083394
            ],
            [
              -71.75669945457383,
              42.250346868423684
            ],
            [
              -71.75626956536334,
              42.250195610701596
            ],
            [
              -71.75586170388699,
              42.250013774583564
            ],
            [
              -71.75547979843972,
              42.24980311150318
            ],
            [
              -71.75512752720475,
              42.24956565053479
            ],
            [
              -71.75480828282194,
              42.24930367884197
            ],
            [
              -71.75452513971187,
              42.249019719639826
            ],
            [
              -71.75428082447058,
              42.2487165078842
            ],
            [
              -71.75407768961966,
              42.24839696392201
            ],
            [
              -71.7539176909642,
              42.24806416535706
            ],
            [
              -71.7538023687765,
              42.24772131740249
            ],
            [
              -71.75373283298545,
              42.24737172200592
            ],
            [
              -71.75370975251374,
              42.2470187460447
            ],
            [
              -71.7537333488644,
              42.24666578889791
            ],
            [
              -71.75373536879485,
              42.2466557090998
            ],
            [
              -71.75360644273306,
              42.246598223383245
            ],
            [
              -71.75322456538659,
              42.24638755267145
            ],
            [
              -71.75287232160713,
              42.2461500846384
            ],
            [
              -71.75255310377003,
              42.24588810651567
            ],
            [
              -71.75226998604028,
              42.24560414158029
            ],
            [
              -71.7520256947694,
              42.24530092484327
            ],
            [
              -71.75182258224815,
              42.244981376699506
            ],
            [
              -71.75166260406662,
              42.24464857479299
            ],
            [
              -71.7516291285216,
              42.24454903720231
            ],
            [
              -71.7515711348914,
              42.24452317664161
            ],
            [
              -71.75118927682813,
              42.2443124990792
            ],
            [
              -71.75083705222134,
              42.24407502471182
            ],
            [
              -71.75051785326173,
              42.243813040831995
            ],
            [
              -71.75023475393238,
              42.2435290707722
            ],
            [
              -71.74999048040765,
              42.24322584959278
            ],
            [
              -71.74978738480733,
              42.242906297731366
            ],
            [
              -71.74962742255863,
              42.242573492867756
            ],
            [
              -71.7495121335833,
              42.24223064027574
            ],
            [
              -71.74950908176952,
              42.24221529049512
            ],
            [
              -71.74944224888482,
              42.24201653740725
            ],
            [
              -71.74937274341207,
              42.24166693902368
            ],
            [
              -71.74934968930533,
              42.241313961837626
            ],
            [
              -71.74937330781391,
              42.24096100523986
            ],
            [
              -71.74944337070455,
              42.24061146836688
            ],
            [
              -71.7495592024892,
              42.24026871736641
            ],
            [
              -71.74971968695891,
              42.23993605298279
            ],
            [
              -71.7499232779599,
              42.239616678774155
            ],
            [
              -71.75016801430694,
              42.23931367026746
            ],
            [
              -71.75045153868952,
              42.23902994534797
            ],
            [
              -71.75077112038811,
              42.23876823616805
            ],
            [
              -71.75112368158113,
              42.23853106284569
            ],
            [
              -71.7515058269889,
              42.23832070920521
            ],
            [
              -71.7519138765691,
              42.23813920079378
            ],
            [
              -71.75234390094884,
              42.237988285384745
            ],
            [
              -71.75279175925253,
              42.23786941615535
            ],
            [
              -71.75325313896184,
              42.23778373770025
            ],
            [
              -71.7537235974244,
              42.23773207501548
            ],
            [
              -71.75419860461265,
              42.237714925558386
            ],
            [
              -71.75467358672194,
              42.237732454460016
            ],
            [
              -71.75514397018881,
              42.237784492935916
            ],
            [
              -71.75560522570741,
              42.23787053991051
            ],
            [
              -71.75605291182046,
              42.23798976683948
            ],
            [
              -71.75648271766666,
              42.238141025684
            ],
            [
              -71.75689050447342,
              42.23832285995988
            ],
            [
              -71.75727234539677,
              42.23853351875597
            ],
            [
              -71.75762456332478,
              42.238770973586504
            ],
            [
              -71.75794376628163,
              42.239032937916186
            ],
            [
              -71.7582268800912,
              42.23931688916972
            ],
            [
              -71.75847117798608,
              42.23962009301474
            ],
            [
              -71.75867430687654,
              42.23993962968438
            ],
            [
              -71.75883431002617,
              42.24027242208655
            ],
            [
              -71.75891363820918,
              42.2405082306219
            ],
            [
              -71.75910759640699,
              42.240594709053
            ],
            [
              -71.75948945840072,
              42.24080536038562
            ],
            [
              -71.75984169727424,
              42.24104280831469
            ],
            [
              -71.75997174583664,
              42.24114952783496
            ],
            [
              -71.76001247802921,
              42.241167688088396
            ],
            [
              -71.76039434648744,
              42.241378336387534
            ],
            [
              -71.76074659194029,
              42.24161578151418
            ],
            [
              -71.76106582214689,
              42.24187773702648
            ],
            [
              -71.76134663858309,
              42.24215934977142
            ],
            [
              -71.76163464903605,
              42.242287750555455
            ],
            [
              -71.76201652964353,
              42.242498393413
            ],
            [
              -71.76236878740802,
              42.24273583351184
            ],
            [
              -71.76268802997012,
              42.24299778445853
            ],
            [
              -71.7629711827724,
              42.24328172380674
            ],
            [
              -71.76316978231924,
              42.24352816390039
            ],
            [
              -71.76331449759796,
              42.24362570563506
            ],
            [
              -71.76363374855737,
              42.24388765390931
            ],
            [
              -71.76391690957813,
              42.24417159087918
            ],
            [
              -71.76416125343827,
              42.24447478234997
            ],
            [
              -71.76436442660538,
              42.24479430867397
            ],
            [
              -71.76440214057733,
              42.244872728136585
            ],
            [
              -71.76448753875081,
              42.24491982830642
            ],
            [
              -71.7648398192488,
              42.245157260716994
            ],
            [
              -71.76515908423818,
              42.245419204676345
            ],
            [
              -71.76544225894563,
              42.24570313780539
            ],
            [
              -71.76568661601732,
              42.246006325946404
            ],
            [
              -71.76572274573972,
              42.24606314267053
            ],
            [
              -71.76585493234118,
              42.24615223081281
            ],
            [
              -71.7661742065457,
              42.24641417190155
            ],
            [
              -71.76645739025366,
              42.246698102475584
            ],
            [
              -71.76670175602457,
              42.247001288401776
            ],
            [
              -71.76675505010326,
              42.2470850934206
            ],
            [
              -71.7670439746299,
              42.247074631103445
            ],
            [
              -71.76737441012787,
              42.24708678689961
            ],
            [
              -71.76748545582807,
              42.247057301554705
            ],
            [
              -71.76794688260493,
              42.246971564122724
            ],
            [
              -71.76841739734326,
              42.246919841243454
            ],
            [
              -71.76889246947373,
              42.24690263095379
            ],
            [
              -71.76936752456648,
              42.24692009897049
            ],
            [
              -71.7698379883556,
              42.24697207709534
            ],
            [
              -71.77029933076209,
              42.24705806483382
            ],
            [
              -71.77074710949232,
              42.24717723421204
            ],
            [
              -71.77091202581202,
              42.247235238067745
            ],
            [
              -71.77105380572516,
              42.24720888982329
            ],
            [
              -71.77152431968872,
              42.247157154198874
            ],
            [
              -71.77154484822054,
              42.24715641000439
            ],
            [
              -71.77166961851864,
              42.247112602769064
            ],
            [
              -71.77211750507672,
              42.24699365825513
            ],
            [
              -71.77257892511622,
              42.2469079021841
            ],
            [
              -71.7730494355965,
              42.24685616029933
            ],
            [
              -71.77348907614461,
              42.246840215830616
            ],
            [
              -71.77358642674325,
              42.24680603356118
            ],
            [
              -71.77403430753115,
              42.2466870815542
            ],
            [
              -71.77449572273979,
              42.24660131776583
            ],
            [
              -71.77496622937494,
              42.24654956801366
            ],
            [
              -71.77544129694533,
              42.24653233059339
            ],
            [
              -71.77591635106498,
              42.24654977148297
            ],
            [
              -71.77638681747732,
              42.24660172274535
            ],
            [
              -71.77684816607811,
              42.24668768414471
            ],
            [
              -71.77729595451413,
              42.24680682796069
            ],
            [
              -71.77772587093916,
              42.24695800695479
            ],
            [
              -71.77813377551628,
              42.24713976541176
            ],
            [
              -71.7785117701268,
              42.247348164315675
            ],
            [
              -71.77865867975736,
              42.24732085246987
            ],
            [
              -71.77912918833664,
              42.24726908564466
            ],
            [
              -71.77960426017202,
              42.24725183098154
            ],
            [
              -71.78007932083645,
              42.24726925462449
            ],
            [
              -71.78054979601042,
              42.247321188802545
            ],
            [
              -71.78101115550534,
              42.24740713344434
            ],
            [
              -71.7814589568631,
              42.247526260990924
            ],
            [
              -71.78188888811316,
              42.2476774243604
            ],
            [
              -71.78229680927589,
              42.24785916798796
            ],
            [
              -71.78267879221401,
              42.24806974183538
            ],
            [
              -71.78269725516147,
              42.24808217972724
            ],
            [
              -71.78315926258541,
              42.24813316775562
            ],
            [
              -71.78362063153932,
              42.248219101887834
            ],
            [
              -71.78406844354981,
              42.248338219228636
            ],
            [
              -71.78449838654377,
              42.248489372794396
            ],
            [
              -71.78490632042855,
              42.24867110711475
            ],
            [
              -71.78528831694439,
              42.24888167224106
            ],
            [
              -71.78564069748165,
              42.24911904058966
            ],
            [
              -71.78596006849912,
              42.24938092645816
            ],
            [
              -71.78624335420278,
              42.24966480802699
            ],
            [
              -71.78648782617023,
              42.24996795163499
            ],
            [
              -71.78669112963573,
              42.25028743809563
            ],
            [
              -71.78685130618183,
              42.25062019080057
            ],
            [
              -71.78688139455915,
              42.25070949124388
            ],
            [
              -71.78711207883902,
              42.250995528673435
            ],
            [
              -71.78731538875415,
              42.25131501397027
            ],
            [
              -71.78747557118076,
              42.25164776574373
            ],
            [
              -71.78759108287268,
              42.25199057959365
            ],
            [
              -71.78761982605579,
              42.25213468158563
            ],
            [
              -71.78768708096679,
              42.252179980790935
            ],
            [
              -71.78800647589055,
              42.25244186082127
            ],
            [
              -71.78811862071622,
              42.25255423078924
            ],
            [
              -71.78815507965275,
              42.252578787081184
            ],
            [
              -71.78844568726358,
              42.25258942321044
            ],
            [
              -71.78891620883746,
              42.25264132301885
            ],
            [
              -71.78937761846052,
              42.25272723392415
            ],
            [
              -71.78982547319218,
              42.25284632869226
            ],
            [
              -71.79004109432643,
              42.25292211545498
            ],
            [
              -71.79018340655078,
              42.25293781098605
            ],
            [
              -71.79041587840179,
              42.25294631525741
            ],
            [
              -71.79088640424361,
              42.25299820697963
            ],
            [
              -71.79134781914172,
              42.25308410995316
            ],
            [
              -71.7917956801048,
              42.253203197020255
            ],
            [
              -71.7922256745885,
              42.25335432148883
            ],
            [
              -71.79263366200453,
              42.253536028168696
            ],
            [
              -71.79301571357786,
              42.25374656737741
            ],
            [
              -71.7933681501688,
              42.25398391178093
            ],
            [
              -71.79338462752231,
              42.25399741985829
            ],
            [
              -71.79341791838596,
              42.25400627124074
            ],
            [
              -71.79384792219768,
              42.254157389606014
            ],
            [
              -71.79425591944634,
              42.25433909048954
            ],
            [
              -71.79463798126224,
              42.2545496242647
            ],
            [
              -71.79499042840708,
              42.25478696364975
            ],
            [
              -71.79530986669839,
              42.25504882322126
            ],
            [
              -71.79559321969448,
              42.25533268141298
            ],
            [
              -71.79583775832504,
              42.25563580478895
            ],
            [
              -71.79604112718239,
              42.25595527435751
            ],
            [
              -71.79620136721935,
              42.256288013673135
            ],
            [
              -71.796316934635,
              42.25663081845566
            ],
            [
              -71.79632394130252,
              42.256665918575415
            ],
            [
              -71.79650341555828,
              42.25674583896992
            ],
            [
              -71.79650515025163,
              42.256746794783
            ],
            [
              -71.79659731518832,
              42.25676394774258
            ],
            [
              -71.797045212064,
              42.25688301423351
            ],
            [
              -71.79747524407871,
              42.257034118922896
            ],
            [
              -71.79788327028288,
              42.257215806811026
            ],
            [
              -71.7982653615281,
              42.25742632839641
            ],
            [
              -71.79845670387199,
              42.257555162545614
            ],
            [
              -71.79851775483817,
              42.25757139081322
            ],
            [
              -71.79867081673501,
              42.25762517098853
            ],
            [
              -71.79892419588283,
              42.25757802575947
            ],
            [
              -71.79939476412079,
              42.25752617588324
            ],
            [
              -71.79986990740224,
              42.25750883729979
            ],
            [
              -71.80034505061244,
              42.25752617696114
            ],
            [
              -71.80081561863724,
              42.257578027904884
            ],
            [
              -71.80096284744894,
              42.25760542260366
            ],
            [
              -71.80099271714082,
              42.25757550342422
            ],
            [
              -71.80131218348019,
              42.25731365426674
            ],
            [
              -71.80166465855812,
              42.25707632634894
            ],
            [
              -71.80204674792323,
              42.25686580498382
            ],
            [
              -71.802107486348,
              42.25683875914088
            ],
            [
              -71.80213915855839,
              42.256799502233406
            ],
            [
              -71.80242252829012,
              42.256515649716896
            ],
            [
              -71.80274198336507,
              42.25625379652834
            ],
            [
              -71.80309444717986,
              42.25601646417254
            ],
            [
              -71.80347652539157,
              42.25580593800524
            ],
            [
              -71.80388453860408,
              42.25562424523487
            ],
            [
              -71.80421595496595,
              42.2555077848983
            ],
            [
              -71.80454441888014,
              42.25528660269928
            ],
            [
              -71.80463655665773,
              42.25523583237292
            ],
            [
              -71.80471216260172,
              42.25517385493334
            ],
            [
              -71.80506461301586,
              42.25493651647824
            ],
            [
              -71.8054466781561,
              42.25472598370803
            ],
            [
              -71.80585467875215,
              42.25454428389472
            ],
            [
              -71.80628468590207,
              42.25439316665466
            ],
            [
              -71.80652265473518,
              42.254329896266796
            ],
            [
              -71.80665193602427,
              42.25422391248883
            ],
            [
              -71.8070043738761,
              42.25398656803354
            ],
            [
              -71.807171418029,
              42.253894514753995
            ],
            [
              -71.80728203343163,
              42.25380383113488
            ],
            [
              -71.80763446658212,
              42.25356648472598
            ],
            [
              -71.80801651490606,
              42.25335594334481
            ],
            [
              -71.8084244992951,
              42.253174234346375
            ],
            [
              -71.80885449100327,
              42.25302310743544
            ],
            [
              -71.80888767527676,
              42.25301428351295
            ],
            [
              -71.80902221217416,
              42.25290398274809
            ],
            [
              -71.8093746337902,
              42.25266663095467
            ],
            [
              -71.80975667089565,
              42.252456083743894
            ],
            [
              -71.8101646444901,
              42.25227436852688
            ],
            [
              -71.81059462593156,
              42.25212323506829
            ],
            [
              -71.81097672060004,
              42.252021624783474
            ],
            [
              -71.81099248604605,
              42.25200582793376
            ],
            [
              -71.8113118829113,
              42.2517439506712
            ],
            [
              -71.81166428948467,
              42.251506591794325
            ],
            [
              -71.81204631197429,
              42.2512960369143
            ],
            [
              -71.81245427152047,
              42.251114313516105
            ],
            [
              -71.81246945462539,
              42.251108976401895
            ],
            [
              -71.81250248662204,
              42.25107587690183
            ],
            [
              -71.81282187254928,
              42.25081399539185
            ],
            [
              -71.81317426828464,
              42.25057663183696
            ],
            [
              -71.81355628014056,
              42.25036607189338
            ],
            [
              -71.8139642293597,
              42.250184343094844
            ],
            [
              -71.8143941875347,
              42.250033195336805
            ],
            [
              -71.81467910939972,
              42.24995741315123
            ],
            [
              -71.81473174447152,
              42.249914252080785
            ],
            [
              -71.81474021231398,
              42.24990854808232
            ],
            [
              -71.81480267645092,
              42.24984595157137
            ],
            [
              -71.81512204665869,
              42.249584063600125
            ],
            [
              -71.81547442692411,
              42.24934669292719
            ],
            [
              -71.81585642370864,
              42.24913612527736
            ],
            [
              -71.81626435839993,
              42.248954388258596
            ],
            [
              -71.81644484888372,
              42.24889093313246
            ],
            [
              -71.81650183124266,
              42.2488442045154
            ],
            [
              -71.81685420221713,
              42.24860682957272
            ],
            [
              -71.81723618994872,
              42.248396257300314
            ],
            [
              -71.8176441159123,
              42.24821451535063
            ],
            [
              -71.81807405192438,
              42.24806335374581
            ],
            [
              -71.81852185795955,
              42.2479442280336
            ],
            [
              -71.81887111873434,
              42.24787916803363
            ],
            [
              -71.81899930400172,
              42.24772019160956
            ],
            [
              -71.81928255749743,
              42.24743629699644
            ],
            [
              -71.81960189702016,
              42.247174396441515
            ],
            [
              -71.81995424707907,
              42.246937011905814
            ],
            [
              -71.82033621442632,
              42.24672642924766
            ],
            [
              -71.82074412073308,
              42.246544676219514
            ],
            [
              -71.82111224207253,
              42.2464152326075
            ],
            [
              -71.82134618540418,
              42.24628625274339
            ],
            [
              -71.82175408597601,
              42.246104496109304
            ],
            [
              -71.82180081299215,
              42.24608806482414
            ],
            [
              -71.82182264698615,
              42.24606617945278
            ],
            [
              -71.82214196909241,
              42.245804271763376
            ],
            [
              -71.82249430200406,
              42.245566879367935
            ],
            [
              -71.8228762526384,
              42.245356288200476
            ],
            [
              -71.82328414282736,
              42.24517452609544
            ],
            [
              -71.8234242125156,
              42.24512526829784
            ],
            [
              -71.8234619544712,
              42.245094310907135
            ],
            [
              -71.82381427848377,
              42.24485691442751
            ],
            [
              -71.8241962204456,
              42.24464631883831
            ],
            [
              -71.82460410227223,
              42.244464552016545
            ],
            [
              -71.82475974106588,
              42.24440981626003
            ],
            [
              -71.82485173975336,
              42.24433435211573
            ],
            [
              -71.82520405432722,
              42.244096951335585
            ],
            [
              -71.82558598708312,
              42.243886351090495
            ],
            [
              -71.82599386002518,
              42.243704579302296
            ],
            [
              -71.82642374548024,
              42.243553386280475
            ],
            [
              -71.82643235045174,
              42.24355109632827
            ],
            [
              -71.82651404079684,
              42.24351468956837
            ],
            [
              -71.8269103542524,
              42.24337530146028
            ],
            [
              -71.82710110973738,
              42.243218818864804
            ],
            [
              -71.827453409672,
              42.2429814111292
            ],
            [
              -71.82783532821887,
              42.24277080335294
            ],
            [
              -71.82824318751885,
              42.24258902353038
            ],
            [
              -71.82867306003017,
              42.24243782204839
            ],
            [
              -71.82893918744001,
              42.2423669927829
            ],
            [
              -71.82912395434514,
              42.24228464092354
            ],
            [
              -71.82955382268717,
              42.242133436132285
            ],
            [
              -71.83000156518592,
              42.24201426547777
            ],
            [
              -71.83046287043742,
              42.24192827645697
            ],
            [
              -71.83093329650565,
              42.241876297056166
            ],
            [
              -71.83140831367471,
              42.241858827782174
            ],
            [
              -71.83161227258171,
              42.24186621684074
            ],
            [
              -71.83166598688338,
              42.24183659287269
            ],
            [
              -71.83207382916973,
              42.241654799398184
            ],
            [
              -71.83250368619233,
              42.24150358353377
            ],
            [
              -71.83295141868606,
              42.2413844013497
            ],
            [
              -71.8334127153432,
              42.241298400454
            ],
            [
              -71.83388313431047,
              42.24124640894728
            ],
            [
              -71.83427251635904,
              42.24123207895982
            ],
            [
              -71.83456895267545,
              42.24117680993924
            ],
            [
              -71.8350393697901,
              42.24112481368848
            ],
            [
              -71.83551438018858,
              42.24110732740441
            ],
            [
              -71.83598941003517,
              42.24112451946115
            ],
            [
              -71.83645988530706,
              42.24117622431748
            ],
            [
              -71.83692127581489,
              42.24126194411001
            ],
            [
              -71.83736913880229,
              42.2413808534447
            ],
            [
              -71.83779916170573,
              42.24153180734077
            ],
            [
              -71.83820720366379,
              42.241713352250386
            ],
            [
              -71.83858933537682,
              42.24192374004877
            ],
            [
              -71.8389418769342,
              42.24216094485984
            ],
            [
              -71.83926143324514,
              42.24242268255607
            ],
            [
              -71.83954492673233,
              42.24270643274485
            ],
            [
              -71.83978962697353,
              42.243009463030425
            ],
            [
              -71.83999317700568,
              42.2433288553178
            ],
            [
              -71.84015361603787,
              42.243661533905836
            ],
            [
              -71.84026939835364,
              42.24400429509954
            ],
            [
              -71.84033940822029,
              42.24435383805635
            ],
            [
              -71.84036297066022,
              42.244706796569844
            ],
            [
              -71.84033985798,
              42.245059771485
            ],
            [
              -71.84027029199294,
              42.245409363432806
            ],
            [
              -71.84015494191266,
              42.24575220556906
            ],
            [
              -71.83999491793682,
              42.24608499600211
            ],
            [
              -71.83979176058168,
              42.2464045295971
            ],
            [
              -71.83954742586923,
              42.246707728850076
            ],
            [
              -71.83926426650872,
              42.246991673534495
            ],
            [
              -71.83894500925281,
              42.247253628834315
            ],
            [
              -71.83859272864623,
              42.24749107169231
            ],
            [
              -71.83821081741924,
              42.247701715119376
            ],
            [
              -71.83780295381074,
              42.24788353023043
            ],
            [
              -71.83737306613635,
              42.24803476579424
            ],
            [
              -71.83692529494246,
              42.248153965108365
            ],
            [
              -71.83646395311145,
              42.24823998003661
            ],
            [
              -71.83599348430332,
              42.248291982073084
            ],
            [
              -71.83560405922559,
              42.24830631789188
            ]
          ]
        ]
      }
    }
  ]
}